ID_3,EventID,StationID,Stream_3,Units_3,Magnitude_3,Country_3,Depth_3,VS30_3,EpicentralDistance_3,MainPGA_3,MainPGV_3,MainPGD_3,MainMaxFrequency_3,MainMaxDI_3,MainMaxRI_3,MainMaxMMI_3,MainMaxMMI_PGA_3,MainMaxMMI_PGV_3,HVSR_3,MainHousnerIntensity_3,TrainPGA_3,TrainPGV_3,TrainPGD_3,TrainMaxFrequency_3,TrainMaxDI_3,TrainMaxRI_3,TrainMaxMMI_3,TrainMaxMMI_PGA_3,TrainMaxMMI_PGV_3,TrainHousnerIntensity_3,ID_4,Stream_4,Units_4,Magnitude_4,Country_4,Depth_4,VS30_4,EpicentralDistance_4,MainPGA_4,MainPGV_4,MainPGD_4,MainMaxFrequency_4,MainMaxDI_4,MainMaxRI_4,MainMaxMMI_4,MainMaxMMI_PGA_4,MainMaxMMI_PGV_4,HVSR_4,MainHousnerIntensity_4,TrainPGA_4,TrainPGV_4,TrainPGD_4,TrainMaxFrequency_4,TrainMaxDI_4,TrainMaxRI_4,TrainMaxMMI_4,TrainMaxMMI_PGA_4,TrainMaxMMI_PGV_4,TrainHousnerIntensity_4,TrainMaxDI,TrainMaxRI,TrainMaxMMI,MainMaxDI,MainMaxRI,MainMaxMMI,MainMaxMMI_PGA
90870309-3,9087,309,3.0,cm/s^2,6.0,Turkey,10.92,368.0,162.87,1.9890539033774208,0.2479572821463249,0.1557471328321309,0.8551724137931034,0.0,1.7226122848692338,3.2069621619373674,1.291943210562536,0.0445956045788551,1.7287245453194708,0.1129996512697158,1.0014205753895475,0.1346218381696053,0.3031292900769655,0.7984031936127745,0.0,1.200351747142395,2.386267031223764,0.13439452583727,-1.1066386594451627,0.0375030340912202,9087309-4,,,6.0,Turkey,10.92,368.0,162.87,2.411967482277752,0.306067326401005,0.142277214120739,1.478357542204237,0.0,1.9634678603645896,3.5854494948586413,1.7671270625496387,0.5297061348034897,,,2.120165966363924,0.2591811541703973,0.1718928121459779,2.2757992516948864,0.0,1.9313800927779,3.535025860079556,1.467134348820454,0.1338873108858562,,0.0,1.9313800927779,3.535025860079556,0.0,1.9634678603645896,3.5854494948586413,1.7671270625496387
90870311-3,9087,311,3.0,cm/s^2,6.0,Turkey,10.92,183.0,113.06,6.749209474587906,0.5113496119706117,0.1874828943938739,2.0,0.203668596595188,2.603668596595188,4.591479223221009,3.352818292761408,1.4088358193566954,0.910880970276487,0.1835501610314988,3.1634987806201864,0.1779106231772551,0.1595579014170794,6.187624750499002,0.0,1.7347203728948988,3.2259891574062696,2.0746512356986755,-0.5811238368564475,0.0376599856753769,9087311-4,,,6.0,Turkey,10.92,183.0,113.06,18.738435035226512,1.4976712138687256,0.3291384427319763,1.821761940552974,1.1962446538656657,3.5962446538656656,6.15124159893176,5.098228373927725,3.494652331179632,,,2.721161789169573,0.1613868564798128,0.1129985593337846,6.850699521648908,0.0,1.8652504223263304,3.431107806512805,1.8921474096859927,-0.6433156850227819,,0.0,1.8652504223263304,3.431107806512805,1.1962446538656657,3.5962446538656656,6.15124159893176,5.098228373927725
90870706-3,9087,706,3.0,cm/s^2,6.0,Turkey,10.92,327.0,163.47,1.2072462438793687,0.2973371484991446,0.1435585405726327,0.4344827586206896,0.0,1.7391167329081547,3.232897723141386,0.4496951313036795,0.3869014072295313,4.595066751198702,0.0942549118510502,1.2072462438793687,0.2882811530600142,0.2543684685989312,0.3992015968063872,0.0,1.661444242371716,3.110840952298411,0.4496951313036795,0.3286025270462649,0.0781402701457841,9087706-4,,,6.0,Turkey,10.92,327.0,163.47,2.539734103073459,0.3165404421950946,0.2536416071786965,1.9964772781070217,0.0,1.951063687318824,3.56595722292958,1.7344753022098294,0.7342792035147065,,,2.035165329594325,0.3470630310604414,0.3718175141334751,1.7964071856287425,0.0,2.0089183355955944,3.656871670221648,1.7344753022098294,1.1874578288130386,,0.0,2.0089183355955944,3.656871670221648,0.0,1.951063687318824,3.56595722292958,1.7344753022098294
90870708-3,9087,708,3.0,cm/s^2,6.0,Turkey,10.92,454.0,179.62,0.8217313785687024,0.2092227945070944,0.2195424859918351,0.4,0.0,1.406537211743588,2.710272761311353,-0.1991891801635734,-0.2755569465099294,5.336144225580395,0.080484697127098,,,,,,,,,,,9087708-4,,,6.0,Turkey,10.92,454.0,179.62,2.3906144371193805,0.3701026600453863,0.1651153932761781,2.1344576902321584,0.0,2.0669886326164986,3.74812499411164,1.7769059560310874,0.8254066218018699,,,1.693892891337676,0.1768330182790431,0.1314715474999452,1.996007984031936,0.0,2.08499420301896,3.776419461886937,1.7769059560310874,1.0230365628130569,,,,,0.0,2.0669886326164986,3.74812499411164,1.7769059560310874
90870709-3,9087,709,3.0,cm/s^2,6.0,Turkey,10.92,454.0,147.62,1.8361637918557017,0.4218963481956402,0.2559189923042117,0.7000000000000001,0.0,2.01593182896854,3.667892874093418,1.1570319517490275,1.0463930256524985,0.9516762678949876,0.2512513259836239,1.3932546783463071,0.3475512410017797,0.5326414125311052,0.998003992015968,0.0,1.837833074027284,3.388023402042874,0.6914145009499527,0.6810217811564527,0.1182596316374902,9087709-4,,,6.0,Turkey,10.92,454.0,147.62,3.374621924883364,0.6440755856808927,0.6553221979663604,0.6661733875264914,0.091771545546255,2.491771545546255,4.415641000144115,2.2062909810917537,1.847201617447213,,,2.545023147745608,0.4411771475604135,0.3563938440395839,0.8926419071855448,0.0,2.3648757014244173,4.216233245095513,2.06595599340591,1.3839478562072518,,0.0,2.3648757014244173,4.216233245095513,0.091771545546255,2.491771545546255,4.415641000144115,2.2062909810917537
90870912-3,9087,912,3.0,cm/s^2,6.0,Turkey,10.92,391.0,74.77,3.4056112699183623,0.182847043077021,0.114967484667477,1.2636363636363637,0.0,1.8870030932093225,3.465290575043221,2.199045668766181,-0.5295383338505815,1.8090628656692616,0.0630236707241076,2.4664716120656847,0.0982434659917861,0.0475764918588262,4.590818363273453,0.0,1.5152847757785808,2.881161790509198,1.6548236551316209,-1.7004020469843262,0.0228629065001113,9087912-4,,,6.0,Turkey,10.92,391.0,74.77,5.016468761360182,0.3252966952049066,0.0862036400077351,2.2859976211638853,0.0295376369830529,2.429537636983053,4.317844858116226,3.032811345983319,0.8359744709306547,,,1.2886305658165789,0.072669853554719,0.0697427993071945,2.9873512070051427,0.0,1.152507026041956,2.311082469494502,0.6280970183497634,-2.178717190485916,,0.0,1.5152847757785808,2.881161790509198,0.0295376369830529,2.429537636983053,4.317844858116226,3.032811345983319
90870913-3,9087,913,3.0,cm/s^2,6.0,Turkey,10.92,302.0,98.4,2.414967244283704,0.2260023103151446,0.1179527168216272,1.7531914893617022,0.0,1.872702127794707,3.4428176293916817,1.6192272737112954,-0.1301501061903764,0.6262135922330097,0.088441527521368,1.757153037436893,0.115116533327922,0.1068248083034923,4.191616766467066,0.0,1.5532127055567546,2.9407628230177574,1.0828404381368002,-1.4016623707929377,0.0212601211110491,9087913-4,,,6.0,Turkey,10.92,302.0,98.4,3.5334384705239867,0.3991948654492853,0.1726533980028486,1.097872340425532,0.0,2.355685996904931,4.201792280850606,2.265193328442476,1.0067680023304473,,,1.3989021969779445,0.1479597983830115,0.2011825346939784,2.69276198866907,0.0,1.687978019938069,3.1525368884741085,0.7926688339446097,-0.623826328624479,,0.0,1.687978019938069,3.1525368884741085,0.0,2.355685996904931,4.201792280850606,2.265193328442476
90871502-3,9087,1502,3.0,cm/s^2,6.0,Turkey,10.92,294.0,58.32,28.276520465435,0.8264595642640289,0.2257275240411607,10.763636363636364,1.177110883661097,3.577110883661097,6.121174245753152,5.769338455077813,2.3137417871318013,0.8382515189495235,0.2651161233246273,8.686402845127189,0.2141028815311577,0.0522164384511961,12.17564870259481,0.0,2.270289519381879,4.067597816171524,3.7784544301174185,-0.2320982964361873,0.0674423447540899,90871502-4,,,6.0,Turkey,10.92,294.0,58.32,54.59973188873128,1.5615062817693557,0.3772560393198321,9.022634531238507,1.7080609800561413,4.108060980056141,6.955524397231079,6.974632694562201,3.641854701246118,,,8.1122397028492,0.159540579323383,0.0630815503133107,10.57884231536926,0.0,2.2905274231805235,4.099400236426536,3.74607638207762,-0.7443307253720097,,0.0,2.2905274231805235,4.099400236426536,1.7080609800561413,4.108060980056141,6.955524397231079,6.974632694562201
90871505-3,9087,1505,3.0,cm/s^2,6.0,Turkey,10.92,367.0,61.91,11.54883746708718,1.854123528131204,0.5670320373301955,0.8999999999999999,1.097504330319832,3.497504330319832,5.996078233359736,4.258898638089249,3.8367218059912114,1.1412353484710938,0.6166190242108357,4.608140676495684,0.3097527374960612,0.0879007469006979,3.79241516966068,0.0,2.2787070445830606,4.080825355773381,2.709133930200577,0.4640057649808873,0.090718188625393,90871505-4,,,6.0,Turkey,10.92,367.0,61.91,17.186320905254792,1.7342285625030889,0.6644831263706462,1.0271118136239843,1.3880048012467907,3.788004801246791,6.452578973387814,4.957718394687497,4.092594042156779,,,4.051225658903868,0.4023063474511096,0.1733947718701995,1.2935610176462795,0.1372607344995637,2.537260734499564,4.487124011356457,2.7102266568140227,1.310165033455765,,0.1372607344995637,2.537260734499564,4.487124011356457,1.3880048012467907,3.788004801246791,6.452578973387814,4.957718394687497
90872011-3,9087,2011,3.0,cm/s^2,6.0,Turkey,10.92,925.0,44.32,3.446446143212614,0.1625004439358082,0.1111790650306373,1.6818181818181817,0.0,1.883663734269343,3.460043010994682,2.219150891503013,-0.7518912453274509,1.1010984620952995,0.0572239204045499,1.6526325888736206,0.1508107276368349,0.1455679009531044,3.79241516966068,0.0,1.660214709826746,3.108908829727744,0.9793967978217604,-0.8926040985728068,0.0226448217780115,90872011-4,,,6.0,Turkey,10.92,925.0,44.32,3.746493612384496,0.2073929880850158,0.1142186837289897,1.851847413523913,0.0,2.0558792722711536,3.73066742785467,2.360241223955407,-0.2345814270811206,,,2.1265521325090964,0.1158611437461657,0.0842648440263906,3.79241516966068,0.0,1.6389892640583992,3.075554557806056,2.3596777487070995,-1.3794015064547702,,0.0,1.660214709826746,3.108908829727744,0.0,2.0558792722711536,3.73066742785467,2.360241223955407
90872013-3,9087,2013,3.0,cm/s^2,6.0,Turkey,10.92,346.0,69.24,4.075819332696798,0.2250142486211611,0.0993044324168671,3.3909090909090907,0.0,2.1067901940470253,3.81067030493104,2.5020747685200533,-0.1384085136499631,0.4661180006774332,0.087227988523673,2.448181426596439,0.0958272008608149,0.0524876589124911,7.385229540918163,0.0,1.5679592456554745,2.9639359574586024,1.6422685376930135,-1.747338597276138,0.0198196358985984,90872013-4,,,6.0,Turkey,10.92,346.0,69.24,7.242875810110779,0.5083737810705855,0.21970128576869,1.580563765933478,0.3359453443130706,2.7359453443130706,4.799342683920539,3.5616973758635115,1.654458559342141,,,1.7184910212143816,0.1131057348409826,0.118184390777546,4.090599108167504,0.0,1.6380558027430552,3.074087690024801,1.1368044279531395,-0.8911830328081831,,0.0,1.6380558027430552,3.074087690024801,0.3359453443130706,2.7359453443130706,4.799342683920539,3.5616973758635115
90872025-3,9087,2025,3.0,cm/s^2,6.0,Turkey,10.92,205.0,51.22,25.72505612701128,0.935659029200778,0.72960491515958,1.509090909090909,1.0163806127408583,3.4163806127408582,5.868598105735634,5.609823989528728,2.547650440122048,0.9065014123362256,0.4209603904667923,25.72505612701128,0.9368543133137278,0.4704972531044479,3.992015968063872,1.0793378394273767,3.4793378394273766,5.967530890528734,5.609823989528728,2.550056743172861,0.2959192084295668,90872025-4,,,6.0,Turkey,10.92,205.0,51.22,28.97106924801905,2.175348790493057,1.6195745749295976,1.3679930404346676,1.4925188324413434,3.8925188324413433,6.616815308122111,5.836886345977854,4.237867667351692,,,12.557610158773652,0.6548823958904816,0.1995022827577718,5.994673619832817,0.904778701343608,3.304778701343608,5.693223673539955,4.848564955562879,2.609815100490725,,1.0793378394273767,3.4793378394273766,5.967530890528734,1.4925188324413434,3.8925188324413433,6.616815308122111,5.836886345977854
90873201-3,9087,3201,3.0,cm/s^2,6.0,Turkey,10.92,445.0,89.88,9.63661722961226,0.4980193624493279,0.133700135041734,2.570212765957447,0.2706659561419973,2.670665956141997,4.696760788223139,3.953563181245602,1.3590486294482769,0.8049831643141204,0.2259012161722141,1.9142949140373413,0.1168650319629117,0.0712208100668791,6.986027944111776,0.0,1.6442757494595943,3.0838618920079344,1.227322355904534,-1.3732489133153063,0.0441332727765487,90873201-4,,,6.0,Turkey,10.92,445.0,89.88,14.02937849253702,0.9203152202978712,0.1993144589496138,2.0689780053009734,0.8933702394295377,3.293370239429538,5.675296090532131,4.650724916063065,2.541026836355897,,,2.4678617128670632,0.1030328660027543,0.0468703713675749,6.187624750499002,0.0,1.4958952893175268,2.8506925974989707,1.6965065122345786,-1.52001440486774,,0.0,1.6442757494595943,3.0838618920079344,0.8933702394295377,3.293370239429538,5.675296090532131,4.650724916063065
90873509-3,9087,3509,3.0,cm/s^2,6.0,Turkey,10.92,286.0,147.52,0.7881498434838744,0.0884595328514941,0.0433203084233738,0.976923076923077,0.0,0.9723735208360288,2.028015532742331,-0.2695714454771421,-1.898128255623745,0.6623540423563177,0.0413627472528262,,,,,,,,,,,90873509-4,,,6.0,Turkey,10.92,286.0,147.52,1.933235476231616,0.297898192372082,0.3171734716627024,0.647068949071172,0.0,1.952119848159136,3.567616904250071,1.4023750300441615,0.4967165969747871,,,1.757504311549823,0.2188065145442705,0.311698275011329,1.093258597814703,0.0,2.019276970319437,3.673149524787687,1.4023750300441615,0.4638835365907257,,,,,0.0,1.952119848159136,3.567616904250071,1.4023750300441615
90873531-3,9087,3531,3.0,cm/s^2,6.0,Turkey,10.92,271.0,174.41,0.3217738238315029,0.0434933049001291,0.0855436764460193,1.903448275862069,0.0,0.2674494797813245,0.9202777539420812,-1.7806730364481136,-3.236246743212405,1.069976061071714,0.0150347367474717,,,,,,,,,,,90873531-4,,,6.0,Turkey,10.92,271.0,174.41,0.6243912733968704,0.0474633179997959,0.0341271361441024,2.036644088660642,0.0,0.6583616279865028,1.5345682725502183,-0.5766014766477253,-2.8539073628170977,,,,,,,,,,,,,,,,0.0,0.6583616279865028,1.5345682725502183,-0.5766014766477253
90873539-3,9087,3539,3.0,cm/s^2,6.0,Turkey,10.92,704.0,165.66,0.4032563959352542,0.0569646083028559,0.0538678503393404,1.5448275862068963,0.0,0.4615939406228542,1.2253619066930566,-1.399922369314497,-2.7276737989370297,0.8270382983506723,0.014998261644848,,,,,,,,,,,90873539-4,,,6.0,Turkey,10.92,704.0,165.66,0.5633033090009679,0.0513430753573696,0.0503236015185587,1.277631578141728,0.0,0.6104124937492199,1.4592196330344884,-0.7282314706926609,-2.9079367583239133,,,,,,,,,,,,,,,,0.0,0.6104124937492199,1.4592196330344884,-0.7282314706926609
90874205-3,9087,4205,3.0,cm/s^2,6.0,Turkey,10.92,363.0,169.28,1.623624520956885,0.2887957021108124,0.1753914228205425,1.089655172413793,0.0,1.7593433936579854,3.264682475748262,0.949526076894083,0.3319637496585268,0.9570574595772936,0.1164372700533457,1.623624520956885,0.3370540846311284,0.2140148100382118,0.998003992015968,0.0,1.8361342301889727,3.385353790296957,0.949526076894083,0.6232162403794241,0.1109180640684182,90874205-4,,,6.0,Turkey,10.92,363.0,169.28,5.130302228178225,0.4749369525937227,0.2337090257963868,1.0428626111256023,0.1434368193234116,2.543436819323412,4.496829287508218,3.0985128207259205,1.301723079981383,,,5.130302228178225,0.5417941451279599,0.3207204890748082,1.3972055888223551,0.2801044257287139,2.6801044257287137,4.711592669002264,3.0985128207259205,1.66373197631569,,0.2801044257287139,2.6801044257287137,4.711592669002264,0.1434368193234116,2.543436819323412,4.496829287508218,3.0985128207259205
90874313-3,9087,4313,3.0,cm/s^2,6.0,Turkey,10.92,391.0,149.59,1.2545912190840054,0.1796209018946121,0.1242260440219153,1.1,0.0,1.548625053614126,2.933553655679341,0.5145827140405557,-0.563091172504091,1.3243950322976332,0.0750906417875732,1.20652379085201,0.1973249992012984,0.1378240890329641,1.3972055888223551,0.0,1.4731479195148776,2.814946730666236,0.4486853966416471,-0.3859096438172265,0.0659706843675342,90874313-4,,,6.0,Turkey,10.92,391.0,149.59,2.502596191311431,0.2791020172523784,0.1085660799288815,1.4568345355273966,0.0,2.058548548781137,3.734862005227501,1.9072184458155943,0.5061333523572218,,,1.2218365264966025,0.1628659599949297,0.1486318705724174,1.7964071856287425,0.0,1.7215525257205178,3.2052968261322423,0.7461513637485131,-0.1803208987807769,,0.0,1.7215525257205178,3.2052968261322423,0.0,2.058548548781137,3.734862005227501,1.9072184458155943
90874503-3,9087,4503,3.0,cm/s^2,6.0,Turkey,10.92,359.0,109.12,2.260628577012725,0.1870525786493385,0.2102351024825024,0.6384615384615385,0.0,1.679799232577324,3.139684508335795,1.5078262644349216,-0.4866775436244945,2.190254083018281,0.0923021582320921,2.260628577012725,0.0153387564275205,0.0124248600000457,16.96606786427146,0.0,0.5205079680072007,1.317941092582744,1.5078262644349216,-5.20067074421731,0.0019115590310731,90874503-4,,,6.0,Turkey,10.92,359.0,109.12,2.669213144236368,0.3604602807081556,0.2652215375111377,1.3983929914655184,0.0,2.10462343262296,3.807265394121794,1.971971209701063,0.9382931995895576,,,2.2597374486542368,0.0153810079595485,0.0023851251921988,20.900977230737418,0.0,0.8773272500172358,1.8786571071699416,1.8699764974273587,-4.394954692267011,,0.0,0.8773272500172358,1.8786571071699416,0.0,2.10462343262296,3.807265394121794,1.971971209701063
90874504-3,9087,4504,3.0,cm/s^2,6.0,Turkey,10.92,336.0,154.84,1.815440498419772,0.2334296489705502,0.0849822421366849,1.2482758620689656,0.0,1.8960716911979023,3.479541229025275,1.137886163181166,-0.0692028864489429,1.4746310714212807,0.0787947441246558,1.815440498419772,0.1815903484252164,0.3447718535615419,2.1956087824351296,0.0,1.5312446167669265,2.9062415406337414,1.137886163181166,-0.542537413212834,0.048836130440506,90874504-4,,,6.0,Turkey,10.92,336.0,154.84,3.079829174004226,0.3856081661957977,0.1272143819932845,1.8407463719120816,0.0,2.3076643924017577,4.126329759488476,2.166625633400973,1.3107529880362154,,,1.710461992368649,0.1914819294940871,0.1321643301373384,2.395209580838324,0.0,1.770852065170427,3.2827675309820994,1.3108986965660283,-0.2985326625688236,,0.0,1.770852065170427,3.2827675309820994,0.0,2.3076643924017577,4.126329759488476,2.166625633400973
90874511-3,9087,4511,3.0,cm/s^2,6.0,Turkey,10.92,304.0,89.35,4.054167506947754,0.3064949945674755,0.0622292693672668,1.0808510638297872,0.0,2.257550695828774,4.047579664873787,2.4930901584065195,0.44407749680337,1.0033115235399357,0.1503296188222219,2.173621650558026,0.1066669301394798,0.0513920307568419,5.189620758483034,0.0,1.5208347073006263,2.889883111472413,1.441622466699437,-1.545350683922095,0.0258127193930187,90874511-4,,,6.0,Turkey,10.92,304.0,89.35,6.831773570064672,0.6631408265354545,0.1492068082648568,1.0844303275708238,0.4517427090333437,2.851742709033344,4.981309971338112,3.376474787069313,2.210117719099624,,,1.6884571308284022,0.117983622607167,0.0814862275906355,3.691265870041304,0.0,1.661955910952415,3.111645002925223,1.030681394282897,-0.8679783462363835,,0.0,1.661955910952415,3.111645002925223,0.4517427090333437,2.851742709033344,4.981309971338112,3.376474787069313
90874512-3,9087,4512,3.0,cm/s^2,6.0,Turkey,10.92,356.0,117.28,2.594948482588028,0.2020467266961889,0.0957655359334025,0.7923076923076924,0.0,1.8817670445298864,3.457062498546964,1.7404760270862996,-0.3413391057594883,1.7696022517289465,0.117218642933314,2.506913948849612,0.1371549374354927,0.036374823907743,5.9880239520958085,0.0,1.7838945423298125,3.303262852232562,1.6822575337911,-1.071502322741758,0.0319404888900609,90874512-4,,,6.0,Turkey,10.92,356.0,117.28,4.610744555921239,0.5195595156068865,0.19968942554961,1.4020694763698576,0.2319213498072121,2.631921349807212,4.6358764068399045,2.9613220363783888,1.6018173137587737,,,1.650016550616505,0.1278307719120246,0.0452823694084482,4.974026265220404,0.0,1.3449026221962637,2.6134184063084143,1.029823585057294,-0.8575638444401439,,0.0,1.7838945423298125,3.303262852232562,0.2319213498072121,2.631921349807212,4.6358764068399045,2.9613220363783888
