ID_3,EventID,StationID,Stream_3,Units_3,Magnitude_3,Country_3,Depth_3,VS30_3,EpicentralDistance_3,MainPGA_3,MainPGV_3,MainPGD_3,MainMaxFrequency_3,MainMaxDI_3,MainMaxRI_3,MainMaxMMI_3,MainMaxMMI_PGA_3,MainMaxMMI_PGV_3,HVSR_3,MainHousnerIntensity_3,TrainPGA_3,TrainPGV_3,TrainPGD_3,TrainMaxFrequency_3,TrainMaxDI_3,TrainMaxRI_3,TrainMaxMMI_3,TrainMaxMMI_PGA_3,TrainMaxMMI_PGV_3,TrainHousnerIntensity_3,ID_4,Stream_4,Units_4,Magnitude_4,Country_4,Depth_4,VS30_4,EpicentralDistance_4,MainPGA_4,MainPGV_4,MainPGD_4,MainMaxFrequency_4,MainMaxDI_4,MainMaxRI_4,MainMaxMMI_4,MainMaxMMI_PGA_4,MainMaxMMI_PGV_4,HVSR_4,MainHousnerIntensity_4,TrainPGA_4,TrainPGV_4,TrainPGD_4,TrainMaxFrequency_4,TrainMaxDI_4,TrainMaxRI_4,TrainMaxMMI_4,TrainMaxMMI_PGA_4,TrainMaxMMI_PGV_4,TrainHousnerIntensity_4,TrainMaxDI,TrainMaxRI,TrainMaxMMI,MainMaxDI,MainMaxRI,MainMaxMMI,MainMaxMMI_PGA
68713539-3,6871,3539,3.0,cm/s^2,6.5,Turkey,19.44,704.0,133.75,4.786434026460122,1.0253343418572067,1.225034772747858,0.1661267547138467,0.484869360546847,2.8848693605468467,5.033366138002188,2.7731669079118864,2.72015628555507,3.057776970284131,0.2097439495497721,4.698319710475488,0.4035635870848025,0.3908768455261713,8.782435129740518,0.0,2.350926453452124,4.194312998281909,2.74182492729773,0.9626579654957328,0.0673295058263203,68713539-4,,,6.5,Turkey,19.44,704.0,133.75,6.185023985542688,0.8684177629234943,0.4984809084685997,0.5079785647120411,0.499836106469043,2.899836106469043,5.056885310165639,3.2228425435886554,2.7089871176232303,,,3.0908760269920568,0.2676081839247947,0.1996443859125155,1.975947093136061,0.0921521120510759,2.492152112051076,4.416239033223119,2.787283758832971,1.8210711140033176,,0.0921521120510759,2.492152112051076,4.416239033223119,0.499836106469043,2.899836106469043,5.056885310165639,3.2228425435886554
68714507-3,6871,4507,3.0,cm/s^2,6.5,Turkey,19.44,341.0,178.05,3.645860644638232,0.8693088760028758,0.580361373531243,0.6367411508799683,0.0331981775667924,2.4331981775667924,4.323597136176388,2.314031451070501,2.4090156546469563,0.2895369446163146,0.2284818877787878,3.645860644638232,0.4371620458525932,0.4084779645020768,3.193612774451098,0.0,2.390512607216033,4.256519811339481,2.314031451070501,1.1133882318157091,0.0866946675226209,68714507-4,,,6.5,Turkey,19.44,341.0,178.05,3.3834632109393934,1.201860197573987,0.9922868095432776,0.1843600873372617,0.5125389604492941,2.912538960449294,5.076846937848891,2.1939928986389785,3.2873104080112188,,,1.4833138774706467,0.3510146249332752,0.2885411522794876,2.3191517043158187,0.0,2.32985549419104,4.161201490871634,0.9372322761433006,1.900333983844324,,0.0,2.390512607216033,4.256519811339481,0.5125389604492941,2.912538960449294,5.076846937848891,2.314031451070501
68714801-3,6871,4801,3.0,cm/s^2,6.5,Turkey,19.44,1024.0,87.35,9.77446065039905,0.9045115244480496,0.4571162466060046,2.1640850811531904,0.6702149910275909,3.0702149910275907,5.324623557329071,3.977520445251057,2.4838372140035414,0.8959260183112824,0.3543120943172291,6.105740754656926,0.3201096377123698,0.230986602725163,4.191616766467066,0.0779521924888907,2.4779521924888908,4.393924873911114,3.1838077922753505,0.5259965744688873,0.0893478961640866,68714801-4,,,6.5,Turkey,19.44,1024.0,87.35,23.911715805628702,1.6406634216448597,0.7117703540861278,1.9388601300444264,1.387502025416944,3.787502025416944,6.451788897083769,5.623875532507554,3.870670802964127,,,5.253116636827291,0.3304847314583917,0.4754938247138603,4.196366475374978,0.1446033855888873,2.5446033855888874,4.498662463068252,3.141832613727204,0.922538106936297,,0.1446033855888873,2.5446033855888874,4.498662463068252,1.387502025416944,3.787502025416944,6.451788897083769,5.623875532507554
67163539-3,6716,3539,3.0,cm/s^2,6.2,Unknown,15.86,704.0,148.06,6.104266693117379,0.5463299755870915,0.1707967129024714,1.5853903271121814,0.1453678600163087,2.5453678600163085,4.499863780025628,3.183400512151204,1.5335548288259342,0.950168438166454,0.2587590063871122,1.780704960537347,0.0915379815698123,0.1355850781827378,8.782435129740518,0.0,1.2990871348529542,2.541422640483214,1.1052992057422926,-1.8336502194690023,0.0259797373323505,67163539-4,,,6.2,Unknown,15.86,704.0,148.06,6.968253576006016,0.4842854629319522,0.1993145424524909,1.5063878509963848,0.2624964902382589,2.662496490238259,4.683923056088692,3.546976368524485,1.3395483838562676,,,1.696265924284058,0.1142629637248229,0.1710239986646667,11.177644710578845,0.0,1.5559531998130436,2.945069313991925,1.05075740267258,-1.1190591813832018,,0.0,1.5559531998130436,2.945069313991925,0.2624964902382589,2.662496490238259,4.683923056088692,3.546976368524485
68710910-3,6871,910,3.0,cm/s^2,6.5,Turkey,19.44,271.0,107.63,23.55256711757504,1.983535412830444,1.0336004102072622,0.3248679341224328,1.2762125275791036,3.676212527579104,6.276905400481448,5.460996563286179,3.96388941992453,0.8555390522607891,0.6923692828535934,23.55256711757504,1.2613216706480908,0.817315360485244,3.193612774451098,1.1882551819872744,3.5882551819872743,6.138686714551431,5.460996563286179,3.1105842209769983,0.2771022877001785,6871910-4,,,6.5,Turkey,19.44,271.0,107.63,21.089705336159952,3.821043213747004,2.356762529283301,0.2779372044690266,1.5893501441925335,3.989350144192533,6.768978798016838,5.602499662593358,5.607329609953871,,,7.292506705106014,0.8337575312236282,1.1701698384252794,2.361708496247352,0.8095287742335658,3.209528774233566,5.543545216652746,3.634653323060245,2.80280323070501,,1.1882551819872744,3.5882551819872743,6.138686714551431,1.5893501441925335,3.989350144192533,6.768978798016838,5.602499662593358
68710916-3,6871,916,3.0,cm/s^2,6.5,Turkey,19.44,366.0,117.21,11.660221245171355,1.1852071570159104,0.9343009473775384,0.9196645929131728,0.585733444816291,2.985733444816291,5.191866841854171,4.275089176083312,2.993267111642324,0.7569744913950782,0.3865292051241751,11.660221245171355,0.6280541466556082,0.9230725730738796,3.79241516966068,0.5318580104581624,2.9318580104581624,5.107205445005683,4.275089176083312,1.7963073590381506,0.1442995726569166,6871916-4,,,6.5,Turkey,19.44,366.0,117.21,8.725446416550115,1.5360572151426113,0.9955667754934292,0.6961626374745107,0.8145149401820795,3.214514940182079,5.551380620286125,3.8063841920068353,3.6117894532704,,,6.313308219736518,0.7930502705611931,1.011371643059872,1.872421461007357,0.4711321852607749,2.871132185260775,5.011779148266932,3.3338786643439824,2.3943582322434613,,0.5318580104581624,2.9318580104581624,5.107205445005683,0.8145149401820795,3.214514940182079,5.551380620286125,4.275089176083312
68710922-3,6871,922,3.0,cm/s^2,6.5,Turkey,19.44,205.0,106.44,15.50269755355128,2.584698830100402,1.2988209846389411,0.3257932934258621,1.2667655116406944,3.666765511640694,6.262060089721091,4.755541853551356,4.462859166733001,1.473542191901777,0.8274897071644443,15.50269755355128,0.6597249232539536,0.8237609804976715,4.391217564870259,0.7239341816698757,3.123934181669876,5.409039428338376,4.755541853551356,1.889034948139824,0.1901730838283427,6871922-4,,,6.5,Turkey,19.44,205.0,106.44,19.93298278588282,4.693370773546654,2.508917874022737,0.4800701637016436,1.6842763107079992,4.084276310707999,6.918148488255427,5.198265428848386,5.888540922330823,,,8.459206809417696,0.6786681298005897,0.514873555568376,3.092202272421092,0.8844656533241608,3.284465653324161,5.661303169509396,3.8881990443962615,3.4049569097742136,,0.8844656533241608,3.284465653324161,5.661303169509396,1.6842763107079992,4.084276310707999,6.918148488255427,5.198265428848386
68712014-3,6871,2014,3.0,cm/s^2,6.5,Turkey,19.44,344.0,169.85,3.8468626269537305,0.5209506813090549,0.3044308361941354,1.6538511104428886,0.0269897162775887,2.4269897162775886,4.313840982721925,2.4045543363778465,1.443897288898471,0.4248321724729532,0.2350083306994032,1.7820419345373832,0.1663686244856758,0.1013840233175699,1.596806387225549,0.0,1.546152828353541,2.9296687302698503,1.106565199429174,-0.7075500114385571,0.0469361216820665,68712014-4,,,6.5,Turkey,19.44,344.0,169.85,7.96452744763801,0.8325878706328835,0.3925282347135315,0.7026091601962584,0.6016912863136932,3.001691286313693,5.2169434499215175,3.7333947383703294,2.431291879812991,,,1.498596329499011,0.2209949933591996,0.2369718734766729,0.9778402166799116,0.0,1.873117516698393,3.4434703833831897,0.9664657153907268,0.3197687048076232,,0.0,1.873117516698393,3.4434703833831897,0.6016912863136932,3.001691286313693,5.2169434499215175,3.7333947383703294
68713509-3,6871,3509,3.0,cm/s^2,6.5,Turkey,19.44,286.0,151.23,4.049803031816182,1.108064127375439,0.7328170141876552,0.8958141050002715,0.4090852011118687,2.8090852011118685,4.914276744604365,2.4912732721494235,2.8664116451389234,0.6827266674734033,0.3047772952478238,4.049803031816182,0.3438332840978851,0.4636060090999063,4.391217564870259,0.0,2.37530194397428,4.232617340531011,2.4912732721494235,0.6607499528377776,0.066572896281791,68713509-4,,,6.5,Turkey,19.44,286.0,151.23,7.804379267964106,1.637188316214634,0.844548649643921,0.6115961785825047,0.8585617282976086,3.2585617282976083,5.620597001610527,3.726024882652959,3.7239729662284224,,,2.426592182466389,0.5355892845490592,1.15227275566805,1.5461011362105457,0.1319034735127663,2.531903473512766,4.478705458377204,2.364425564869363,1.8932602002595509,,0.1319034735127663,2.531903473512766,4.478705458377204,0.8585617282976086,3.2585617282976083,5.620597001610527,3.726024882652959
68713515-3,6871,3515,3.0,cm/s^2,6.5,Turkey,19.44,171.0,174.54,2.612233177778646,0.8512073650026378,0.719301212024509,0.1841062689349801,0.0,2.3239460979284923,4.151915296744773,1.751674379215435,2.3693535173660347,3.449221922389549,0.1615746748194046,2.612233177778646,0.3418871982018877,0.2789353589361417,0.7984031936127745,0.0,2.087011752401949,3.7795898966316335,1.751674379215435,0.6500515219440333,0.1257579215491589,68713515-4,,,6.5,Turkey,19.44,171.0,174.54,4.10885428124651,0.9470991029078236,0.6259099726705424,0.6350233788598794,0.7006029809591685,3.1006029809591684,5.372376112935836,3.023436763358908,3.3328116412341835,,,1.8155903018023287,0.2756687158242056,0.3120024736177106,1.9860028684762872,0.0,2.0083477641737075,3.655975057987255,1.4595224798688695,0.5598303377959764,,0.0,2.087011752401949,3.7795898966316335,0.7006029809591685,3.1006029809591684,5.372376112935836,3.023436763358908
68713521-3,6871,3521,3.0,cm/s^2,6.5,Turkey,19.44,145.0,175.15,3.252237691634771,1.194175888181784,0.7022384351954453,0.7481681450057849,0.3424238260933684,2.7424238260933684,4.809523155289579,2.121315970627357,3.007476413393744,0.6102438743940009,0.4292786841801249,3.252237691634771,0.4742243153373933,0.4736590048048864,0.7984031936127745,0.0441471502552014,2.444147150255201,4.340802664686745,2.121315970627357,1.2667697709513992,0.1445841677687351,68713521-4,,,6.5,Turkey,19.44,145.0,175.15,8.50821331990327,2.0675728378824063,1.226406209725502,0.4565650275065028,0.9354404838051265,3.3354404838051264,5.741406474550913,4.020870668083243,4.1706329723478,,,2.3150878848488343,0.5309478673510144,0.8198316660721674,1.7852838143710896,0.0209712065030563,2.420971206503056,4.304383324504803,1.6659208287656666,1.833796129951863,,0.0441471502552014,2.444147150255201,4.340802664686745,0.9354404838051265,3.3354404838051264,5.741406474550913,4.020870668083243
68714808-3,6871,4808,3.0,cm/s^2,6.5,Turkey,19.44,1323.0,78.33,10.032869688774923,0.8087586615719747,0.6678922860025465,0.2488702600039295,0.6930322114034199,3.09303221140342,5.360479189348231,4.02153536602668,2.272934220737058,25.03565324727928,0.3149201728979592,4.912270024377007,0.2119007431943082,0.1503116908742819,9.780439121756489,0.0,2.143662018229776,3.868611742932505,2.8169401878541387,-0.2515850372170334,0.0495621593626683,68714808-4,,,6.5,Turkey,19.44,1323.0,78.33,20.68308715993696,1.2677834803844734,0.6259124565453592,6.230629533018617,1.462850895138911,3.862850895138911,6.570194263789717,5.696079215837643,3.363207229908132,,,9.95553764661256,0.402881893268095,0.5624400075357812,11.93772978387679,0.3757293050311857,2.7757293050311858,4.861860336477577,4.025512128591243,0.9757505932449816,,0.3757293050311857,2.7757293050311858,4.861860336477577,1.462850895138911,3.862850895138911,6.570194263789717,5.696079215837643
68714809-3,6871,4809,3.0,cm/s^2,6.5,Turkey,19.44,746.0,12.6,78.42814807976369,7.232642317722545,16.507197702552386,2.247740043977523,2.485560421656229,4.88556042165623,8.177309234031219,7.490129093244475,6.402348928257853,1.4276006018004015,2.1634482904572545,76.57120954270722,6.937814537786987,9.132579223720686,0.1996007984031936,2.36993781332431,4.76993781332431,7.995616563795344,7.449710430738522,6.323906457528148,1.319762164698108,68714809-4,,,6.5,Turkey,19.44,746.0,12.6,126.06569940213969,14.534550999272795,12.752621413167294,3.208875039473173,3.3111034433592783,5.711103443359278,9.474591125278865,8.655565880442929,8.88826535699966,,,12.545766852464933,2.5964346162188208,4.356205195220524,0.8700397092895557,2.282176450788377,4.682176450788377,7.857705851238879,7.354485254174569,5.84317015387245,,2.36993781332431,4.76993781332431,7.995616563795344,3.3111034433592783,5.711103443359278,9.474591125278865,8.655565880442929
68714810-3,6871,4810,3.0,cm/s^2,6.5,Turkey,19.44,392.0,71.83,13.60643848811043,0.9334403059851292,0.4496101114047229,6.65368604807305,0.9453454948057068,3.345345494805706,5.756971491837539,4.535463492925725,2.543175626153585,0.6744894351662339,0.3507641414124887,7.464934282951655,0.1839117095056734,0.2028952076828009,8.183632734530939,0.0,2.191205105529731,3.943322308689577,3.522832940481825,-0.5185952852142135,0.0300950962056859,68714810-4,,,6.5,Turkey,19.44,392.0,71.83,35.61166843904803,1.6966957842308057,0.4431094279005168,4.4878409443382425,1.6910011570725612,4.0910011570725615,6.928716103971168,6.351411415834594,4.127193410548526,,,5.237845349760487,0.2047661559465649,0.1561056335356127,7.69175603512882,0.0016884691167926,2.401688469116793,4.274081880040674,3.1440066340041404,0.2805144282599299,,0.0016884691167926,2.401688469116793,4.274081880040674,1.6910011570725612,4.0910011570725615,6.928716103971168,6.351411415834594
68714815-3,6871,4815,3.0,cm/s^2,6.5,Turkey,19.44,278.0,59.48,23.70372551210166,1.5544462955898786,0.7686312481330546,4.785098400579214,1.3728657810401852,3.772865781040185,6.428789084491719,5.471787710885472,3.5044386345286824,2.000247842376984,0.440188901910389,6.347749033506658,0.3509769609682915,0.2800391229536162,4.191616766467066,0.0847656693025638,2.484765669302564,4.404631766046887,3.2493751013347363,0.6995091638979702,0.0644011088873192,68714815-4,,,6.5,Turkey,19.44,278.0,59.48,34.45433261679953,1.40784020528636,0.5268759831553338,9.57138275132013,1.5601009836061048,3.9601009836061047,6.723015831381022,6.159924629467548,3.5200753984833577,,,8.621363852556252,0.5205087856933938,0.6411752218066699,11.291126246491777,0.6465419140643726,3.0465419140643726,5.287423007815443,3.8908351085159456,1.7157985174386488,,0.6465419140643726,3.0465419140643726,5.287423007815443,1.5601009836061048,3.9601009836061047,6.723015831381022,6.159924629467548
68714816-3,6871,4816,3.0,cm/s^2,6.5,Turkey,19.44,236.0,121.7,6.527971173773358,0.8769605182623487,0.3183047893000477,1.79955553146512,0.5207543861138635,2.920754386113863,5.089756892464642,3.296598637519757,2.4255333796138627,0.4591867222909341,0.410728046974634,1.9981058599931365,0.1699787272368953,0.1559861211656039,5.788423153692615,0.0,1.5174771435274867,2.884606939828908,1.2996022287387068,-0.6670875531137916,0.0420179300980497,68714816-4,,,6.5,Turkey,19.44,236.0,121.7,19.63195061495043,2.5490794068074467,0.5610834055755605,0.8263320060739885,1.4527191608216694,3.852719160821669,6.55427296700548,5.3745840950981325,4.71839552553568,,,3.2226485506004456,0.2143941738608207,0.0758335961034771,5.687747245019963,0.0,2.3167975951618454,4.140681935254328,2.4019490211619527,0.5970166352376727,,0.0,2.3167975951618454,4.140681935254328,1.4527191608216694,3.852719160821669,6.55427296700548,5.3745840950981325
68714817-3,6871,4817,3.0,cm/s^2,6.5,Turkey,19.44,948.0,38.33,31.38847456943998,2.4773751828499475,1.7568239712784148,0.2075368651010377,1.6424417217181648,4.0424417217181645,6.852408419842829,5.94545549635171,4.382924337037015,33.29512121847446,0.6354990635283474,25.30296657839467,1.050306653981342,1.2961241850448506,7.18562874251497,1.192141155799244,3.592141155799244,6.144793244827383,5.5819178801517735,2.7655119472085268,0.1611034805636766,68714817-4,,,6.5,Turkey,19.44,948.0,38.33,67.62062622790421,2.8797474384200137,2.736195977049877,6.909965080841233,2.156205828492778,4.556205828492778,7.659752016202936,7.472879445943642,5.0727408950215445,,,16.574103738581886,0.8953179400677954,0.4791148057365832,7.18562874251497,1.3272559482812212,3.727255948281221,6.357116490156204,5.078536759383167,3.7287035141789815,,1.3272559482812212,3.727255948281221,6.357116490156204,2.156205828492778,4.556205828492778,7.659752016202936,7.472879445943642
68714821-3,6871,4821,3.0,cm/s^2,6.5,Turkey,19.44,234.0,88.6,25.01520947600008,2.525810502007138,0.5831377246848556,1.493912471207634,1.5331998472020951,3.9331998472020953,6.680742617031864,5.562624895268674,4.419419318622822,0.7486913421204184,0.851545078970773,8.023429785864733,0.4408418115817807,0.3021842595079237,2.7944111776447107,0.3711013253709099,2.7711013253709096,4.854587797011429,3.644534459044822,1.129187258249042,0.0755475156044794,68714821-4,,,6.5,Turkey,19.44,234.0,88.6,46.13851974604293,5.647030502129515,1.1187340009012807,1.1184793330788745,2.2165354196756994,4.616535419675699,7.754555659490385,6.603452578066031,6.025953211821957,,,6.76633861272839,0.4890620941780552,0.5223419342604831,2.7944111776447107,0.4390535235064339,2.8390535235064336,4.961369822652967,3.37137178728446,1.5519124743997978,,0.4390535235064339,2.8390535235064336,4.961369822652967,2.2165354196756994,4.616535419675699,7.754555659490385,6.603452578066031
81780201-3,8178,201,3.0,cm/s^2,6.8,Turkey,8.06,391.0,96.3,33.86227526861988,3.722043870307363,2.768737541539906,0.6723404255319149,1.6876256360771458,4.087625636077146,6.923411713835515,6.073417471443909,5.150191656565268,,1.5563295978559932,6.428758746920148,0.2556311069222508,0.0762258087546552,6.387225548902196,0.0,2.366282301865229,4.2184436172167885,3.270765766034873,0.1020434605706492,0.0823047052248834,8178201-4,,,6.8,Turkey,8.06,391.0,96.3,39.727538263746034,8.87924988404014,5.993015120415154,0.6020425889141007,2.431766154184164,4.831766154184164,8.092775385146544,6.513000673598397,7.060996531803802,,,11.068235502385884,0.2899941008345431,0.0941208633487618,9.25510827893783,0.2632282225733269,2.663228222573327,4.685072921186657,4.215315889595474,0.3508906827024827,,0.2632282225733269,2.663228222573327,4.685072921186657,2.431766154184164,4.831766154184164,8.092775385146544,6.513000673598397
81780204-3,8178,204,3.0,cm/s^2,6.8,Turkey,8.06,555.0,36.81,59.95372354939249,5.720576681560948,1.8180477839928737,1.3453322425234069,2.23759524792661,4.63759524792661,7.7876496753132445,7.037037969421591,5.96028878184301,1.1089317966988457,2.681041697273401,9.081806429391031,0.5692885904023893,0.4164784998982132,4.191616766467066,0.3912584936038678,2.791258493603868,4.886263347091792,3.8535409842918815,1.6111429624755973,0.1079872768256138,8178204-4,,,6.8,Turkey,8.06,555.0,36.81,101.96685127792854,12.808392825385129,5.5405480824645705,1.491881700858369,3.028186829111066,5.428186829111066,9.03000787431739,8.06834258970938,8.028988609085244,,,8.904452898485312,0.610432625791563,0.4596553481600396,3.434061982851348,0.5147147932328971,2.914714793232897,5.080266103651695,4.053006030092267,1.781430372038082,,0.5147147932328971,2.914714793232897,5.080266103651695,3.028186829111066,5.428186829111066,9.03000787431739,8.06834258970938
