ID_3,EventID,StationID,Stream_3,Units_3,Magnitude_3,Country_3,Depth_3,VS30_3,EpicentralDistance_3,MainPGA_3,MainPGV_3,MainPGD_3,MainMaxFrequency_3,MainMaxDI_3,MainMaxRI_3,MainMaxMMI_3,MainMaxMMI_PGA_3,MainMaxMMI_PGV_3,HVSR_3,MainHousnerIntensity_3,TrainPGA_3,TrainPGV_3,TrainPGD_3,TrainMaxFrequency_3,TrainMaxDI_3,TrainMaxRI_3,TrainMaxMMI_3,TrainMaxMMI_PGA_3,TrainMaxMMI_PGV_3,TrainHousnerIntensity_3,ID_4,Stream_4,Units_4,Magnitude_4,Country_4,Depth_4,VS30_4,EpicentralDistance_4,MainPGA_4,MainPGV_4,MainPGD_4,MainMaxFrequency_4,MainMaxDI_4,MainMaxRI_4,MainMaxMMI_4,MainMaxMMI_PGA_4,MainMaxMMI_PGV_4,HVSR_4,MainHousnerIntensity_4,TrainPGA_4,TrainPGV_4,TrainPGD_4,TrainMaxFrequency_4,TrainMaxDI_4,TrainMaxRI_4,TrainMaxMMI_4,TrainMaxMMI_PGA_4,TrainMaxMMI_PGV_4,TrainHousnerIntensity_4,TrainMaxDI,TrainMaxRI,TrainMaxMMI,MainMaxDI,MainMaxRI,MainMaxMMI,MainMaxMMI_PGA
67161005-3,6716,1005,3.0,cm/s^2,6.2,Unknown,15.86,387.0,60.7,18.82104187148249,1.1129449886032532,0.7223887882228398,4.482938718662953,1.1417695129880294,3.5417695129880293,6.065637806124046,5.082715978867636,2.8746958504665607,1.136763442637438,0.27154386282023,15.672278911709473,0.9377731772904156,0.3009440888177551,3.393213572854292,0.987163445535916,3.387163445535916,5.822685414413582,4.773893278279217,2.551904480853822,0.1709907990860695,67161005-4,,,6.2,Unknown,15.86,387.0,60.7,35.79373386514204,1.509168910729001,0.625785654614934,5.096040850959963,1.5851063320346608,3.9851063320346607,6.762309950340181,6.182425879192849,3.5715749591983883,,,13.325707722236832,0.6305665711275065,0.3568910911925622,6.337128888777463,0.770210338200045,3.170210338200045,5.481759102885785,4.71969962951745,1.932877191539992,,0.987163445535916,3.387163445535916,5.822685414413582,1.5851063320346608,3.9851063320346607,6.762309950340181,6.182425879192849
67161008-3,6716,1008,3.0,cm/s^2,6.2,Unknown,15.86,300.0,168.03,2.4309147939145563,0.2923686241431275,0.2009723789243329,3.152643831060858,0.0,1.703328186562776,3.1766585788843624,1.6303296571018682,0.3551395157678989,0.729808404017658,0.1268168455940882,1.0007061621781232,0.0927559245489987,0.0628197379291992,4.790419161676647,0.0,1.1999341502984016,2.3856108076117737,0.1331907338218948,-1.808737201547728,0.027756889964459,67161008-4,,,6.2,Unknown,15.86,300.0,168.03,8.527404013147258,0.6424265860832767,0.166330245783465,2.30082596278264,0.5153924571987059,2.9153924571987058,5.081331004169395,3.7543536997469698,1.93953004515928,,,2.166415648567018,0.1485672260442041,0.250285489882359,2.186517195629406,0.0,1.7398046318101104,3.233978707130173,1.583136744365464,-0.580991486511703,,0.0,1.7398046318101104,3.233978707130173,0.5153924571987059,2.9153924571987058,5.081331004169395,3.7543536997469698
67161015-3,6716,1015,3.0,cm/s^2,6.2,Unknown,15.86,238.0,166.3,2.2593135679478857,0.3398824274972651,0.1666533623994522,1.3758193263677072,0.0,1.904156122840729,3.492245335892575,1.5068447664526223,0.6389666074590177,0.853760554471605,0.1248392043888625,2.2593135679478857,0.3183458479103432,0.568982389650253,1.596806387225549,0.0,2.066526948205769,3.7473994900376377,1.5068447664526223,0.5155824840088807,0.083888543417478,67161015-4,,,6.2,Unknown,15.86,238.0,166.3,8.813121995470585,0.9729491192964658,0.2209849538029225,1.1746202709324438,0.7137816518291353,3.113781651829135,5.393085452874355,3.829934431164292,2.636769176073744,,,1.3262339068801694,0.1640218395925937,0.1885283338661629,1.3972055888223551,0.0,1.8268011162962745,3.3706874684655737,0.870612841050042,0.0455860198668132,,0.0,2.066526948205769,3.7473994900376377,0.7137816518291353,3.113781651829135,5.393085452874355,3.829934431164292
67161701-3,6716,1701,3.0,cm/s^2,6.2,Unknown,15.86,192.0,143.93,10.0996788468644,1.515510857004873,0.7318477543056032,1.071900883970209,0.934945499778872,3.334945499778872,5.740628642509655,4.032730579173036,3.456626285539061,0.6676954169703009,0.686563249704577,10.0996788468644,0.7244623262085779,0.2688110953861224,1.996007984031936,0.5015139968070732,2.901513996807073,5.059521994982543,4.032730579173036,2.0654685981788123,0.2255104329535228,67161701-4,,,6.2,Unknown,15.86,192.0,143.93,28.59274325221233,4.028824740041331,1.3714856546513088,0.7157033076733229,1.8263153087842032,4.226315308784203,7.141352628089462,5.867852150033083,5.355357711830859,,,6.904498336140239,0.6411739130977832,0.252000366320351,1.1976047904191618,0.4290784730263641,2.829078473026364,4.945694743327143,3.52292527562051,1.9205299630771733,,0.5015139968070732,2.901513996807073,5.059521994982543,1.8263153087842032,4.226315308784203,7.141352628089462,5.867852150033083
67161703-3,6716,1703,3.0,cm/s^2,6.2,Unknown,15.86,304.0,174.04,4.000684227644159,0.7260554272671624,0.2976076640672689,0.6722689075630253,0.2433088558969377,2.643308855896937,4.653771059266616,2.4706895204001533,2.069608828376212,1.0969655114602888,0.2857421665298943,2.826184769019355,0.3243541687986656,0.6614691172704847,0.7984031936127745,0.0,2.116419541627488,3.8258021368431945,1.8844629422099328,0.5508245610855713,0.140806366951384,67161703-4,,,6.2,Unknown,15.86,304.0,174.04,8.054429594948656,1.404762751592323,0.4940331378216042,0.7374558060237236,0.995807986990074,3.3958079869900737,5.836269693841544,4.049305802047301,3.780460979953944,,,2.2604554199727174,0.3290421317782971,0.3814044597125084,1.1976047904191618,0.0,2.111897918764432,3.8186967294869647,1.602151153525012,0.7163623068584402,,0.0,2.116419541627488,3.8258021368431945,0.995807986990074,3.3958079869900737,5.836269693841544,4.049305802047301
67161707-3,6716,1707,3.0,cm/s^2,6.2,Unknown,15.86,324.0,145.07,13.478022145886705,1.5857601788799247,0.480397678884787,1.0392528614563583,0.9156079442999636,3.3156079442999635,5.710241055328514,4.519468027308157,3.542030783779629,0.9109852267037384,0.7509802007199835,7.087338419197002,0.6656441402026056,0.196168926005579,2.594810379241517,0.4200890761468574,2.820089076146857,4.931568548230775,3.4352766351691097,1.9058707711956424,0.2679295052847805,67161707-4,,,6.2,Unknown,15.86,324.0,145.07,24.497464808557943,3.5506632520172485,0.7625262128797741,0.9467440035963296,1.726987723899177,4.126987723899177,6.985266423270135,5.698087689476136,5.158922561185044,,,6.182956443158783,0.5755072414880861,0.2755485940375005,1.3828748962625768,0.432426065333821,2.832426065333821,4.950955245524575,3.587239434635141,1.7633886236109022,,0.432426065333821,2.832426065333821,4.950955245524575,1.726987723899177,4.126987723899177,6.985266423270135,5.698087689476136
67161714-3,6716,1714,3.0,cm/s^2,6.2,Unknown,15.86,429.0,140.88,12.608082659373226,1.4141305843631935,0.6341071020516961,1.320044881525972,0.9898000834235956,3.389800083423596,5.826828702522794,4.406920900165369,3.3261244957675595,0.5599999999999999,0.5463251426815854,12.608082659373226,0.9717031697263392,0.2283710071873143,2.594810379241517,0.9005201024624895,3.3005201024624893,5.686531589583912,4.406920900165369,2.6188959082586094,0.2888089693798574,67161714-4,,,6.2,Unknown,15.86,429.0,140.88,16.03568377178899,1.9684378028416736,0.7674312946001778,0.7392251336545442,1.305095152159374,3.705095152159374,6.32229238196473,4.836641914448127,4.035156751099223,,,5.761627129680968,0.5213571934084533,0.2460355713040275,2.594810379241517,0.4585958949709998,2.858595894971,4.992079263525857,3.2161604136012603,1.9278114196229028,,0.9005201024624895,3.3005201024624893,5.686531589583912,1.305095152159374,3.705095152159374,6.32229238196473,4.836641914448127
67161715-3,6716,1715,3.0,cm/s^2,6.2,Unknown,15.86,214.0,171.5,10.750228269634986,1.0422225118135229,0.4420705310686372,1.601001449466333,0.6411260345187718,3.041126034518772,5.27891233995807,4.13802629292812,2.7509483513184745,0.7495588523474879,0.4666588792680283,8.772615760575105,0.656860630337479,0.2828963222389504,2.9940119760479043,0.4017651878908884,2.801765187890888,4.902773866685681,3.795113454437029,1.880833830054952,0.2405001539014684,67161715-4,,,6.2,Unknown,15.86,214.0,171.5,18.01375559116084,2.964778585313153,1.0082653979612397,1.200044809068649,1.624801710149986,4.024801710149986,6.824688401664264,5.060957336793692,5.129178438899659,,,5.887019551253448,0.7423815488555096,0.1421272946428271,1.1976047904191618,0.4672190352244298,2.8672190352244296,5.005629912495532,3.3731360117677083,2.3427452367060093,,0.4672190352244298,2.8672190352244296,5.005629912495532,1.624801710149986,4.024801710149986,6.824688401664264,5.060957336793692
67161716-3,6716,1716,3.0,cm/s^2,6.2,Unknown,15.86,366.0,83.89,13.111701190096689,1.169123715745941,0.7637390326074128,1.186623516720604,1.0151200370929383,3.4151200370929384,5.866617201146046,4.472987724157737,2.967514441066337,5.602485424015351,0.3534513220086387,7.428564753710039,0.4403933161455896,0.1083981982903221,3.393213572854292,0.2607903976659447,2.6607903976659446,4.681242053475056,3.514594683606073,1.1272687207091097,0.1275247000630027,67161716-4,,,6.2,Unknown,15.86,366.0,83.89,52.67343007142112,2.4201249469837016,0.8374436149011977,6.6480409562210205,1.886147873585524,4.286147873585524,7.235375229920108,7.001083622361588,4.4346468322769805,,,12.780812380719125,0.4322657232008682,0.3529634596069478,5.585256918017254,0.5294739470805443,2.9294739470805444,5.103459059697999,4.912576120866588,1.2705481721163865,,0.5294739470805443,2.9294739470805444,5.103459059697999,1.886147873585524,4.286147873585524,7.235375229920108,7.001083622361588
67163503-3,6716,3503,3.0,cm/s^2,6.2,Unknown,15.86,193.0,55.72,26.09150630596061,1.5248613489057898,0.4397708074794108,1.6961591780151677,1.2806388905814092,3.680638890581409,6.283861113770786,5.63368270778638,3.468219746672497,0.7884029058874874,0.482069892760481,13.064824434086525,0.6040099867498525,0.7579597534746481,4.790419161676647,0.7037469545602789,3.103746954560279,5.377316642880438,4.466946297055412,1.7227314779377614,0.1236489211471569,67163503-4,,,6.2,Unknown,15.86,193.0,55.72,52.22339132631905,5.391757159349577,0.978679720060408,1.3372568247948902,2.2275463425555704,4.62754634255557,7.77185853830161,6.8380827448747015,6.121265411938984,,,10.854459624964951,0.6859086328739693,0.4805540060658973,4.790419161676647,0.6830614029104473,3.083061402910447,5.344810776002131,4.224187691303364,2.0609320316422703,,0.7037469545602789,3.103746954560279,5.377316642880438,2.2275463425555704,4.62754634255557,7.77185853830161,6.8380827448747015
67163508-3,6716,3508,3.0,cm/s^2,6.2,Unknown,15.86,558.0,95.61,7.338540735780858,0.9139640797724204,0.2930482786450993,0.5172319921598518,0.5953374205990716,2.995337420599072,5.206958803798541,3.4940281109834745,2.5034324138369346,4.159959513973031,0.350330670638298,5.870649621579006,0.2893926618563292,0.3706933133624021,8.383233532934131,0.0,2.319850332862614,4.145479094498393,3.117577049794121,0.3358558129149576,0.0680272198558903,67163508-4,,,6.2,Unknown,15.86,558.0,95.61,20.26611396317276,1.4760775054366482,0.5163632799355818,2.1516641467166,1.2576498295500969,3.6576498295500968,6.2477354464358665,5.61005174017544,3.723725371482595,,,2.5761084713948152,0.1809205951514838,0.25068629619678,8.345127728689368,0.0,2.091609693770965,3.7868152330686593,1.7889493734503144,-0.0005870134649148,,0.0,2.319850332862614,4.145479094498393,1.2576498295500969,3.6576498295500968,6.2477354464358665,5.61005174017544
67163509-3,6716,3509,3.0,cm/s^2,6.2,Unknown,15.86,286.0,160.0,4.955170305324876,0.6122819448412479,0.1510290734167532,1.204261232051876,0.2223424934953968,2.6223424934953967,4.620823918349909,2.831607545845912,1.74836930608501,1.0466996913785214,0.2816000968593681,1.6355766319078509,0.1477493213444072,0.2027317276456224,4.590818363273453,0.0,1.6341663693589392,3.067975723278333,0.9618977639468504,-0.9312593529280342,0.0381956475327453,67163509-4,,,6.2,Unknown,15.86,286.0,160.0,15.608874179153942,1.6914031018288225,0.3462558920277419,1.2604998599278163,1.21078982892623,3.61078982892623,6.174098302598361,4.9468757766907245,3.693656675367512,,,1.4074735765911268,0.2061136283581526,0.1418842870888729,2.751307136145753,0.0,1.6979368010401743,3.16818640163456,0.8516817858552147,-0.1148207886725716,,0.0,1.6979368010401743,3.16818640163456,1.21078982892623,3.61078982892623,6.174098302598361,4.9468757766907245
67163513-3,6716,3513,3.0,cm/s^2,6.2,Unknown,15.86,195.0,85.97,8.989859235806001,0.8606840907308062,0.2777912952173169,1.3748708575061592,0.6261598214059665,3.026159821405966,5.255394005066518,3.836376230804356,2.39022198500448,0.5329216449302246,0.3906878789330996,5.447669552660125,0.2630505649756198,0.218278169341425,4.790419161676647,0.0,2.356106511639865,4.202453089719788,2.991442576543677,0.1559702968460965,0.0882195125405769,67163513-4,,,6.2,Unknown,15.86,195.0,85.97,19.53228985540587,2.2973985919969646,0.7054056429790603,0.7326984389488109,1.4820232828494553,3.882023282849455,6.600322301620572,5.550536927989684,4.74635639254665,,,2.5759452108096603,0.2906776582067388,0.2855761193774734,0.5988023952095809,0.0,2.201055117778555,3.9588008993663006,1.891564055194805,0.6653281407728433,,0.0,2.356106511639865,4.202453089719788,1.4820232828494553,3.882023282849455,6.600322301620572,5.550536927989684
67163514-3,6716,3514,3.0,cm/s^2,6.2,Unknown,15.86,836.0,84.29,8.385545772273062,0.6146949474139168,0.2360680742527875,3.648705982180738,0.5658253518021159,2.965825351802116,5.16058269568904,3.7189957007430174,1.7557828522722474,0.6154228365215878,0.2182477275318386,4.568523035707019,0.255223090294686,0.160647678332748,4.391217564870259,0.0,2.2204005228154826,3.989200821567187,2.694569281312471,0.0990326389586107,0.0788291334909454,67163514-4,,,6.2,Unknown,15.86,836.0,84.29,12.071131121603337,1.0544626163121686,0.7490566956539845,2.245496985186956,0.8954298396107971,3.2954298396107973,5.678532605102681,4.522706444603224,3.1187077570212303,,,3.696944629264962,0.2243895709816119,0.1875804551332691,5.7711905368466905,0.0,2.215385527294277,3.981320114319579,2.4987722014595963,0.0429623706569293,,0.0,2.2204005228154826,3.989200821567187,0.8954298396107971,3.2954298396107973,5.678532605102681,4.522706444603224
67163515-3,6716,3515,3.0,cm/s^2,6.2,Unknown,15.86,171.0,80.16,10.594116433822355,0.678599895349493,0.1833636392966207,3.0319822672577583,0.5598197423604974,2.959819742360497,5.151145309423638,4.113351456785831,1.942203841370589,0.4485393477074133,0.2839076594449876,5.819677249350938,0.3016627569856146,0.1189466465848477,1.996007984031936,0.0,2.2476121161096585,4.0319618967437485,3.1028673275664502,0.4141241601013825,0.1160522750945544,67163515-4,,,6.2,Unknown,15.86,171.0,80.16,18.70765039698816,2.132527413399269,0.65931380935433,1.359963348416239,1.5198017458402333,3.919801745840233,6.6596884577489375,5.195592116503447,4.551051625018711,,,2.453732389040661,0.3109446607960632,0.2801022472530556,1.669980092882386,0.0,2.129103341783562,3.84573382280274,1.6500551745853085,0.720552430155954,,0.0,2.2476121161096585,4.0319618967437485,1.5198017458402333,3.919801745840233,6.6596884577489375,5.195592116503447
67163520-3,6716,3520,3.0,cm/s^2,6.2,Unknown,15.86,875.0,88.24,5.872316979895315,0.4872617745555929,0.4500740540115546,1.044232095360063,0.1351092637345097,2.5351092637345096,4.483743128725658,3.118056059866276,1.317888566584694,2.08071806894862,0.2774298391370965,4.156955201292814,0.2099798424502192,0.16648225224287,5.588822355289421,0.0,1.942474672252936,3.552460199254613,2.5353234369632167,-0.2687491919997637,0.0777500470511124,67163520-4,,,6.2,Unknown,15.86,875.0,88.24,10.226291712483167,0.9242359670691624,0.7242109170730922,2.1727525889917607,0.7090234803142953,3.109023480314295,5.385608326208178,4.184497132765489,2.570475540975714,,,2.596152659424262,0.1773970358820054,0.0861762391939816,7.678796032603331,0.0,2.09404269142958,3.7906385151036255,2.1650981266290823,-0.2322988201241131,,0.0,2.09404269142958,3.7906385151036255,0.7090234803142953,3.109023480314295,5.385608326208178,4.184497132765489
67163522-3,6716,3522,3.0,cm/s^2,6.2,Unknown,15.86,249.0,89.62,9.576431849111358,1.126620947941104,0.2286696459210174,1.249750049990002,0.8297025368651473,3.229702536865147,5.575246843645231,3.942995257591289,2.8977157477968025,1.04,0.371110716713143,3.3823980272548466,0.2164016382245972,0.0920185679181559,4.391217564870259,0.0,1.8810445195017589,3.455927102074192,2.1875087826900788,-0.2119692382369322,0.0738520635417842,67163522-4,,,6.2,Unknown,15.86,249.0,89.62,20.935039771083,2.589220257192617,0.8880360972577227,1.2997400519896023,1.7705864428119646,4.170586442811965,7.053778695847374,5.595352865214204,5.001140780390333,,,4.200912590358271,0.2837506581176285,0.2261795152983749,3.5817082724403915,0.0,2.346417400718515,4.187227343986238,2.7046232491978737,0.3333430024793178,,0.0,2.346417400718515,4.187227343986238,1.7705864428119646,4.170586442811965,7.053778695847374,5.595352865214204
67163523-3,6716,3523,3.0,cm/s^2,6.2,Unknown,15.86,414.0,70.25,12.596557418285196,1.3704513032622376,0.9812264156664472,1.008853201564752,0.8635457232895225,3.263545723289522,5.628428993740678,4.405378265532604,3.266988059623028,1.1419457006969618,0.607222552433837,8.660720316803545,0.2277153891653752,0.1191316550313907,10.179640718562874,0.1226116418527465,2.5226116418527464,4.464104008625744,3.77345979048084,-0.1159170641512212,0.0730742166874578,67163523-4,,,6.2,Unknown,15.86,414.0,70.25,30.78606857880277,2.6599235144973927,0.713132562928914,1.152055576161234,1.6519694361729749,4.051969436172975,6.867380542557532,5.927570874007483,4.632997550736075,,,3.4743393174535724,0.3064125851568397,0.306439178455792,7.893700572169735,0.012585274274403,2.412585274274403,4.291205431002633,2.433204282240133,0.6020431907784949,,0.1226116418527465,2.5226116418527464,4.464104008625744,1.6519694361729749,4.051969436172975,6.867380542557532,5.927570874007483
67163528-3,6716,3528,3.0,cm/s^2,6.2,Unknown,15.86,725.0,60.81,22.339039991662577,1.0775597432713704,0.6905457603073722,3.85507566552524,1.156859296059582,3.556859296059582,6.089350322379343,5.371766539776488,2.813795494328664,0.5063532617334443,0.3846935367137984,16.037327040134493,0.5526666953515673,0.2513783943802449,6.187624750499002,0.7223101730075592,3.122310173007559,5.406487414726164,4.812732632130797,1.555290696114741,0.1894811226459661,67163528-4,,,6.2,Unknown,15.86,725.0,60.81,37.21309761848647,2.314978984723921,1.0947689629646171,1.9520301374679336,1.743840924838629,4.143840924838629,7.011750024746417,6.304292506612746,4.257336667196379,,,12.22550974048555,0.4035262407266646,0.1961202560498701,5.7849807370017725,0.5669376105192935,2.966937610519293,5.162330530816033,4.426613075853244,1.347746096470491,,0.7223101730075592,3.122310173007559,5.406487414726164,1.743840924838629,4.143840924838629,7.011750024746417,6.304292506612746
67163530-3,6716,3530,3.0,cm/s^2,6.2,Unknown,15.86,270.0,90.59,6.242905681363571,0.6046378129977596,0.228869134683386,1.97688054950578,0.377134037402143,2.777134037402143,4.86406777306051,3.2212822286738905,1.7246896181146432,0.6440120404055366,0.2599764952938271,3.896460764915727,0.2833829135996333,0.1340275806918273,8.183632734530939,0.0,2.282846596298888,4.087330365612537,2.4261634743510694,0.2963016895180157,0.0819500788600706,67163530-4,,,6.2,Unknown,15.86,270.0,90.59,17.200648536468492,1.820433728915228,0.6012846170313598,1.2731348763252357,1.4269854304770837,3.8269854304770834,6.51383424789256,5.1998398229750045,4.356850584051955,,,3.276396560482115,0.2887282766475135,0.300748995148655,0.9146857674562556,0.0,2.162016802564817,3.897454975458998,2.1458754051307984,0.557479880863577,,0.0,2.282846596298888,4.087330365612537,1.4269854304770837,3.8269854304770834,6.51383424789256,5.1998398229750045
