ID_3,EventID,StationID,Stream_3,Units_3,Magnitude_3,Country_3,Depth_3,VS30_3,EpicentralDistance_3,MainPGA_3,MainPGV_3,MainPGD_3,MainMaxFrequency_3,MainMaxDI_3,MainMaxRI_3,MainMaxMMI_3,MainMaxMMI_PGA_3,MainMaxMMI_PGV_3,HVSR_3,MainHousnerIntensity_3,TrainPGA_3,TrainPGV_3,TrainPGD_3,TrainMaxFrequency_3,TrainMaxDI_3,TrainMaxRI_3,TrainMaxMMI_3,TrainMaxMMI_PGA_3,TrainMaxMMI_PGV_3,TrainHousnerIntensity_3,ID_4,Stream_4,Units_4,Magnitude_4,Country_4,Depth_4,VS30_4,EpicentralDistance_4,MainPGA_4,MainPGV_4,MainPGD_4,MainMaxFrequency_4,MainMaxDI_4,MainMaxRI_4,MainMaxMMI_4,MainMaxMMI_PGA_4,MainMaxMMI_PGV_4,HVSR_4,MainHousnerIntensity_4,TrainPGA_4,TrainPGV_4,TrainPGD_4,TrainMaxFrequency_4,TrainMaxDI_4,TrainMaxRI_4,TrainMaxMMI_4,TrainMaxMMI_PGA_4,TrainMaxMMI_PGV_4,TrainHousnerIntensity_4,TrainMaxDI,TrainMaxRI,TrainMaxMMI,MainMaxDI,MainMaxRI,MainMaxMMI,MainMaxMMI_PGA
67163531-3,6716,3531,3.0,cm/s^2,6.2,Unknown,15.86,271.0,135.6,4.202214842510061,0.5629645194518164,0.2107700585252544,2.24741187262482,0.161029749190624,2.561029749190624,4.524475320156695,2.553589532262873,1.5900876464529905,1.1868969020305744,0.1936708433453293,2.101751088287622,0.157230701757488,0.2392143615231279,4.391217564870259,0.0,1.7489395047283147,3.2483335074302087,1.3849056952763297,-0.814027888914473,0.040757067219018,67163531-4,,,6.2,Unknown,15.86,271.0,135.6,9.14288762420084,0.7501601475738623,0.1409314400138438,2.6674461892051307,0.7680915731387682,3.168091573138768,5.47842961493235,4.059500336368417,2.423511739638332,,,1.4397594093218358,0.1220349424705998,0.1817057883128832,3.911360866719646,0.0,1.5693248069184356,2.966081839443256,0.9382147183739814,-0.68760567489187,,0.0,1.7489395047283147,3.2483335074302087,0.7680915731387682,3.168091573138768,5.47842961493235,4.059500336368417
67163537-3,6716,3537,3.0,cm/s^2,6.2,Unknown,15.86,608.0,79.64,8.782267465925493,0.6972965321646933,0.2369513699721595,0.5623087736707185,0.5138569018078535,2.9138569018078533,5.078917988555198,3.796968265519898,1.993431973227413,1.2691440594347894,0.2349304261515937,4.87196840314445,0.29643990648963,0.342261856393531,7.984031936127744,0.0,2.286974075051736,4.093816403652728,2.803044134460697,0.3812051373792182,0.0922555781534804,67163537-4,,,6.2,Unknown,15.86,608.0,79.64,8.75926805391445,1.0091317923500285,0.4014567526071688,0.713650839672254,0.8296630696670615,3.2296630696670614,5.575184823762525,3.860891225000949,2.769293540857272,,,2.526644077328201,0.3275551341615515,0.2981807796956747,7.452357166704379,0.0,2.2195193125667267,3.987816062604856,1.8919522743754469,0.6083208293726474,,0.0,2.286974075051736,4.093816403652728,0.8296630696670615,3.2296630696670614,5.575184823762525,3.860891225000949
67163538-3,6716,3538,3.0,cm/s^2,6.2,Unknown,15.86,325.0,91.87,10.982755399501926,1.1874443946415858,0.3411148230706328,1.2565152643335815,0.7655442348885995,3.1655442348886,5.474426654824942,4.174122733462112,2.996821642735464,0.8977337722988513,0.459014324241838,3.0838329451273987,0.2105515043238246,0.2031388601788223,1.996007984031936,0.0,1.9943493700639696,3.633977581529095,2.0316288372071005,-0.2636247667986002,0.0773220090342571,67163538-4,,,6.2,Unknown,15.86,325.0,91.87,19.126146083804286,2.131009598533496,0.5187607931336082,1.1280161882012745,1.3340780997709063,3.7340780997709055,6.36783701392571,5.203748678505661,4.149587955244908,,,3.716592911589311,0.2362541222596307,0.1117481727789145,4.586477162904614,0.0,2.150186290176861,3.878864170277924,2.518393837045308,-0.0275571324281616,,0.0,2.150186290176861,3.878864170277924,1.3340780997709063,3.7340780997709055,6.36783701392571,5.203748678505661
67164509-3,6716,4509,3.0,cm/s^2,6.2,Unknown,15.86,419.0,140.21,1.802446838104926,0.4297321966754797,0.1980834112140308,0.5485951516050115,0.0,2.072600366064548,3.756943432387146,1.125769811619626,1.0810788573424754,3.307306474149589,0.1441653377091973,1.6547906251213376,0.3964792694383419,0.6247661715865458,0.1996007984031936,0.0,2.0472969815971087,3.717180971081171,0.9815980132831156,0.9292769025385365,0.0981067774277163,67164509-4,,,6.2,Unknown,15.86,419.0,140.21,2.88947521562205,0.4418841261306935,0.1412962592347202,1.81437229659033,0.0,2.324232291866856,4.152365030076488,2.04463379580771,1.3274488333497334,,,2.609427077601848,0.4540163825909443,0.3563429838726252,1.1291126246491776,0.0,2.365450185133161,4.217136005209253,2.04463379580771,1.481382682529082,,0.0,2.365450185133161,4.217136005209253,0.0,2.324232291866856,4.152365030076488,2.04463379580771
68710905-3,6871,905,3.0,cm/s^2,6.5,Turkey,19.44,369.0,105.72,5.04526238116726,1.0888210077162574,0.8810516498692603,1.6653472065143633,0.45711489867889,2.8571148986788897,4.989751983638255,2.8620005115762948,2.833391173350165,0.8631736569500115,0.2693928193633184,4.644276267713841,0.600174124916452,0.4739326826079394,3.393213572854292,0.1992907458654922,2.599290745865492,4.584599743502916,2.72230969111896,1.7107233427561457,0.1410188066879281,6871905-4,,,6.5,Turkey,19.44,369.0,105.72,7.080761679093406,1.1877300533424018,0.8932074637188684,1.437483838338489,0.6659676602576547,3.0659676602576544,5.317949180404885,3.481677714271161,3.3807261334921,,,6.114967769952925,0.6732065074088951,0.540689074445669,0.7984031936127745,0.4773742865728108,2.8773742865728105,5.021588164614417,3.371521740025208,3.0075156020485942,,0.4773742865728108,2.8773742865728105,5.021588164614417,0.6659676602576547,3.0659676602576544,5.317949180404885,3.481677714271161
68710914-3,6871,914,3.0,cm/s^2,6.5,Turkey,19.44,267.0,136.07,18.257309075579165,1.6433390627525275,0.8461670940509787,0.3268879162280458,1.1059377513572348,3.5059377513572345,6.009330752132797,5.0314204058855605,3.609255955584601,0.7008838348520451,0.6831642219980854,18.257309075579165,1.0355836925696793,0.5215796824334671,8.383233532934131,1.1280182320484504,3.52801823204845,6.04402865036185,5.0314204058855605,2.738903780768665,0.1846058575377691,6871914-4,,,6.5,Turkey,19.44,267.0,136.07,13.113251977360784,3.988994208742111,2.068032856403244,0.2291104562927068,1.5597577939988616,3.9597577939988615,6.722476533426782,4.529660210146544,5.677263664047111,,,9.32705791117215,0.9041795122574198,1.1456774014449849,2.186517195629406,0.8716993477755308,3.271699347775531,5.641241832218691,4.035599454834745,2.9532665484955496,,1.1280182320484504,3.52801823204845,6.04402865036185,1.5597577939988616,3.9597577939988615,6.722476533426782,5.0314204058855605
68710915-3,6871,915,3.0,cm/s^2,6.5,Turkey,19.44,355.0,124.08,9.141131237265498,1.1927564155173525,0.6789550072630784,0.704364426305049,0.8856920807719759,3.285692080771976,5.663230412641676,3.864523782729261,3.005234643568788,0.7925211602861255,0.4820963735693649,8.74624434374749,0.529702401204446,0.375579554393711,2.1956087824351296,0.4328172537277355,2.832817253727735,4.951569970143583,3.7900351179341314,1.4752986267565618,0.1257877711042296,6871915-4,,,6.5,Turkey,19.44,355.0,124.08,10.907275087710998,2.3950866554094508,1.1772451636186907,0.5582237123995486,1.3079712775150074,3.707971277515007,6.326812007523582,4.563630122310343,4.590063940121557,,,6.102012790046762,0.8114920408468463,0.7855505500119795,2.850869632152835,0.5721177095297727,2.9721177095297726,5.170470686403928,3.5639059488446247,2.48755412056181,,0.5721177095297727,2.9721177095297726,5.170470686403928,1.3079712775150074,3.707971277515007,6.326812007523582,4.563630122310343
68710920-3,6871,920,3.0,cm/s^2,6.5,Turkey,19.44,894.0,71.49,6.3515911704018535,1.6958180436676136,1.7987746657888284,0.1731832411909678,0.7853786714923585,3.185378671492358,5.505595055202278,3.2503957710256044,3.668505953196608,8.088453308456254,0.4266015146533746,3.093014490514091,0.3304286807748583,0.3921797578633486,5.788423153692615,0.0,2.206620528836996,3.967546545315279,2.0366435118266333,0.5857973762980473,0.0494268119276613,6871920-4,,,6.5,Turkey,19.44,894.0,71.49,10.350189496618995,1.3839646115824622,0.9454342383734384,1.400784560180261,1.2295862163642586,3.6295862163642574,6.203635482858121,4.154993714264072,4.140017209694008,,,2.7036089930367475,0.5990557475366758,0.942015334451577,0.7984031936127745,0.4910602814972844,2.891060281497285,5.043094728067161,2.3420423227982465,2.721791705788735,,0.4910602814972844,2.891060281497285,5.043094728067161,1.2295862163642586,3.6295862163642574,6.203635482858121,4.154993714264072
68710921-3,6871,921,3.0,cm/s^2,6.5,Turkey,19.44,252.0,106.99,9.747131749859452,1.655369614309854,0.9361966758310568,0.9762220207795832,0.8976157858240746,3.2976157858240747,5.681967663437831,3.972797632454686,3.6230042092874815,0.2760878298583955,0.5942216195013995,9.459229911690834,0.6432660508750876,0.5423862221603046,4.590818363273453,0.6450584812454412,3.045058481245441,5.285091899099978,3.922223854793484,1.841415341150105,0.1090044196945354,6871921-4,,,6.5,Turkey,19.44,252.0,106.99,12.604816895783516,2.871216620704814,1.4008463174236003,0.2695230191770126,1.5307364447094738,3.9307364447094737,6.67687155597203,4.467215451603599,5.061214362627799,,,4.753700837913843,0.5101383852179625,0.7278873973942351,3.092202272421092,0.6693638740484694,3.069363874048469,5.323286087790452,3.061985880878525,2.67906314175918,,0.6693638740484694,3.069363874048469,5.323286087790452,1.5307364447094738,3.9307364447094737,6.67687155597203,4.467215451603599
68712012-3,6871,2012,3.0,cm/s^2,6.5,Turkey,19.44,462.0,172.81,4.61837609439303,0.9733026482476984,0.7501750970168045,0.2501969142380577,0.3427481907230827,2.742748190723083,4.810032871136273,2.7128764276224886,2.6219959078897475,0.7471941111789635,0.3469849941454972,2.4925421000846564,0.2741028211177234,0.293494158187184,1.996007984031936,0.0,1.9156715626499907,3.510341027021414,1.6725594795629737,0.2335446134485339,0.0771071550930362,68712012-4,,,6.5,Turkey,19.44,462.0,172.81,5.629074420500856,1.6627864517035142,1.3149525149719068,0.1869456609538248,0.9088503012449062,3.308850301244906,5.699621901956281,3.31635531948642,4.128693476451511,,,1.563051974533762,0.4040090628453115,0.6363285005582863,2.677925721556634,0.0,2.1762107860821627,3.9197598067005415,0.9031512346178824,1.0819625927642051,,0.0,2.1762107860821627,3.9197598067005415,0.9088503012449062,3.308850301244906,5.699621901956281,3.31635531948642
68712013-3,6871,2013,3.0,cm/s^2,6.5,Turkey,19.44,346.0,175.19,2.538038952213339,0.6137988337202075,0.3654971753241573,1.6787232867634876,0.0889010158857717,2.488901015885772,4.411130167820499,1.703071331507208,1.7530330955964797,0.6709800657359044,0.1220915178775549,2.538038952213339,0.2320178942069055,0.1973870923992934,2.9940119760479043,0.0,1.987435731839981,3.623113292891399,1.703071331507208,-0.0806367732397377,0.0557624959698714,68712013-4,,,6.5,Turkey,19.44,346.0,175.19,4.435609502783328,0.8419871768126536,0.5133758339600097,1.1263898613049583,0.3918166535165196,2.7918166535165194,4.887140455525959,2.6953838746600023,2.61852948703597,,,1.9198305050080493,0.2568718392340899,0.2940452293219142,3.29794643550066,0.0,1.857731310712608,3.4192920596912404,1.3473419907607995,0.1896123837847736,,0.0,1.987435731839981,3.623113292891399,0.3918166535165196,2.7918166535165194,4.887140455525959,2.6953838746600023
68712020-3,6871,2020,3.0,cm/s^2,6.5,Turkey,19.44,477.0,161.11,1.8901003561760008,0.4394231221958857,0.4045606418207046,0.1972849828549955,0.0,2.0262921974247967,3.684173453096109,1.205867211578323,1.1231118099372197,1.023532631438318,0.0939073300374632,1.1639204740713078,0.1937336924479721,0.1960551884774885,1.996007984031936,0.0,1.5284490189074778,2.901848458283179,0.388046127342586,-0.420529623231523,0.0566580370467239,68712020-4,,,6.5,Turkey,19.44,477.0,161.11,3.4479233387245376,0.467610133011864,0.3933261794566673,0.2019276176448369,0.0369932214277181,2.436993221427718,4.329560776529272,2.223621409048977,1.2751002453378664,,,1.570297315196517,0.1807806327952804,0.3757635030433772,4.974026265220404,0.0,1.7428693460460645,3.2387946866438155,0.8940259357694623,-0.2671078090555605,,0.0,1.7428693460460645,3.2387946866438155,0.0369932214277181,2.436993221427718,4.329560776529272,2.223621409048977
68713506-3,6871,3506,3.0,cm/s^2,6.5,Turkey,19.44,771.0,167.03,1.3684729952203003,0.6478292236600003,0.6940670259896016,0.1600134748189321,0.0,1.942836183835433,3.553028288884252,0.6611415238252261,1.85473872275174,1.1002392084403618,0.1133496791017587,1.1896856417347703,0.2921838873241624,0.5993797182996663,3.79241516966068,0.0,1.8047286307408927,3.3360021340214034,0.4249787430069716,0.3539481805476994,0.0467009384165604,68713506-4,,,6.5,Turkey,19.44,771.0,167.03,1.7982680126942172,0.7340186088035868,0.6497238475319044,0.1760530988745736,0.0,2.3471147786758446,4.1883232236334695,1.171444233442131,2.171016950410959,,,1.5540592177064314,0.90206336962314,2.27791777477218,0.1996007984031936,0.2462890549713862,2.646289054971386,4.658454229240749,1.0722648948106095,3.034848115144353,,0.2462890549713862,2.646289054971386,4.658454229240749,0.0,2.3471147786758446,4.1883232236334695,1.171444233442131
68713513-3,6871,3513,3.0,cm/s^2,6.5,Turkey,19.44,195.0,172.8,3.090581343416086,0.8065795086155911,0.7265140702103086,0.87008700870087,0.082156203254878,2.482156203254878,4.40053117654338,2.035316053732098,2.267848780450173,0.7287755165125221,0.1767739976468619,3.090581343416086,0.4029130048182024,0.390355508447537,3.193612774451098,0.0,2.2617727758681854,4.054214362078577,2.035316053732098,0.959616978342476,0.0941881552106147,68713513-4,,,6.5,Turkey,19.44,195.0,172.8,6.673101792222835,1.6445043714987542,0.8676133279755336,0.6340981091768119,0.8540023102629206,3.2540023102629205,5.613432201841732,3.380654309961686,3.8940699278584816,,,2.0056094585676254,0.3915123632090265,0.2758314620568047,0.9778402166799116,0.0,2.1335178803536423,3.8526709548414377,1.7101743772866205,0.9136216350607682,,0.0,2.2617727758681854,4.054214362078577,0.8540023102629206,3.2540023102629205,5.613432201841732,3.380654309961686
68713514-3,6871,3514,3.0,cm/s^2,6.5,Turkey,19.44,836.0,174.88,1.6281303852772997,0.8144793559727734,0.8172958596746628,0.1967916989683344,0.0,2.278940331800706,4.081191949972538,0.9542007808448536,2.2862195516771444,0.8740730364761184,0.1331604927298423,1.6281303852772997,0.463581818836583,1.1855876614491303,0.5988023952095809,0.0,2.1575051053672984,3.890365165577183,0.9542007808448536,1.2239885546425024,0.1018020034080369,68713514-4,,,6.5,Turkey,19.44,836.0,174.88,1.969490607177252,0.7858217711401302,0.6466955183272352,0.1720103178705462,0.0,2.2672696112484907,4.062852246247628,1.338491967852241,2.515865243843201,,,1.5149958923137188,0.7560089906825219,1.7825981439617755,0.5988023952095809,0.1256944634373266,2.5256944634373264,4.46894844254437,1.2120492355459107,2.521863247615402,,0.1256944634373266,2.5256944634373264,4.46894844254437,0.0,2.278940331800706,4.081191949972538,1.338491967852241
68713519-3,6871,3519,3.0,cm/s^2,6.5,Turkey,19.44,131.0,172.92,3.0021000033126377,1.0406492935137843,0.7810613666772692,0.6334510902667804,0.2712388296064756,2.671238829606476,4.697661017953033,1.9863193019566632,2.748101068762816,0.707179998512301,0.3288552705760522,2.88177089790096,0.4565345579198487,0.4965811860759186,0.7984031936127745,0.0,2.222389481591713,3.992326328215549,1.9173173086208373,1.1951156737486617,0.1243878519487774,68713519-4,,,6.5,Turkey,19.44,131.0,172.92,8.322011225333272,1.9663193439296904,1.2861369029666254,0.4479639410724771,1.030978502615982,3.4309785026159823,5.891537646967972,3.966843412422109,4.175974221421889,,,2.2416442391565,0.4348596495562423,0.4624861136675227,1.1291126246491776,0.0,2.329167435713766,4.160120256121632,1.6582290268707696,1.4587984514618997,,0.0,2.329167435713766,4.160120256121632,1.030978502615982,3.4309785026159823,5.891537646967972,3.966843412422109
68713520-3,6871,3520,3.0,cm/s^2,6.5,Turkey,19.44,875.0,174.47,1.3548898160008231,0.704780738414083,0.654809479175387,0.1788671745611129,0.0,2.06588869046248,3.7463965135838966,0.6443150521904168,2.0135544743249336,0.9340385342902586,0.1362111079377417,1.1829020181299623,0.3779451520092766,0.989449040212517,2.9940119760479043,0.0,1.881411279444827,3.456503439127585,0.415333033307769,0.8390409004975217,0.0543303197928733,68713520-4,,,6.5,Turkey,19.44,875.0,174.47,2.213305529629873,0.7861562340218838,0.523082592741573,0.1670688335597017,0.009271131366419,2.409271131366419,4.28599749214723,1.7854137576229587,2.3017244836415607,,,1.6839517762618197,0.3452456028585592,0.3787346082948225,0.5988023952095809,0.0,2.3426377391422912,4.181287875795029,1.7854137576229587,1.583421499440005,,0.0,2.3426377391422912,4.181287875795029,0.009271131366419,2.409271131366419,4.28599749214723,1.7854137576229587
68713524-3,6871,3524,3.0,cm/s^2,6.5,Turkey,19.44,459.0,177.84,1.5090145807933584,0.7139290546780002,0.7290201272813742,0.1561574497873027,0.0,2.100672105866582,3.801056166361772,0.8260453060027885,2.037862946270552,1.1392364508056414,0.1205784705922065,1.5090145807933584,0.3480496684674218,1.033345054414588,3.193612774451098,0.0,1.8671272821297444,3.434057157632456,0.8260453060027885,0.6837229139500669,0.0660358619271087,68713524-4,,,6.5,Turkey,19.44,459.0,177.84,1.5394473479240347,0.6844331129005746,0.5053507389985188,0.1779002588625468,0.0,2.272625921852992,4.071269305768987,0.9073803189417556,1.9653205147198265,,,1.336214898324182,0.3225800133540496,0.6788954198618432,1.7285936203282208,0.0,2.02331685868526,3.679497920791123,0.8120697564863243,1.2866793760258,,0.0,2.02331685868526,3.679497920791123,0.0,2.272625921852992,4.071269305768987,0.9073803189417556
68713525-3,6871,3525,3.0,cm/s^2,6.5,Turkey,19.44,745.0,164.18,1.7351968271579536,0.6748077247048332,0.6741855578762909,0.2128725269221137,0.0,2.139925866598707,3.8627406475122537,1.0616305251555986,1.931641397169856,1.0421481009721514,0.1207391472274038,1.2426140153038774,0.3040146848282963,0.2920157394644128,0.5988023952095809,0.0,1.8045066274727928,3.335653271742961,0.498401985924611,0.4287623984365409,0.0756601358416912,68713525-4,,,6.5,Turkey,19.44,745.0,164.18,2.212562055535049,0.6654406732960843,0.5900905568759153,0.2218446996810239,0.0,2.3782547534969347,4.237257469780897,1.542464331650491,2.058479680949836,,,1.4575137302859824,0.4367313485898588,0.9598746453147116,0.8229751747739842,0.0,1.95544764581248,3.5728463005624675,1.0990702121902558,1.39793819492218,,0.0,1.95544764581248,3.5728463005624675,0.0,2.3782547534969347,4.237257469780897,1.542464331650491
68713532-3,6871,3532,3.0,cm/s^2,6.5,Turkey,19.44,328.0,138.0,7.42733507237462,1.1409479939486198,0.8312341478897439,1.0108146296396936,0.4878010021519886,2.8878010021519884,5.037973003381696,3.5143154374856813,2.921533785102372,0.6796770706281119,0.3797362817292432,7.42733507237462,0.6459203448109453,0.7298263246941237,0.5988023952095809,0.3897723625105486,2.7897723625105484,4.883927998230861,3.5143154374856813,1.849176703348765,0.2130129306980221,68713532-4,,,6.5,Turkey,19.44,328.0,138.0,8.174889078915536,1.7191314545634384,0.7994013204595448,0.6870275264215467,1.040139726079318,3.440139726079318,5.9059338552675,3.802988197715256,3.855526614016709,,,5.640426999857313,0.9228180571212464,0.8465873256624772,1.093258597814703,0.726027854209833,3.1260278542098328,5.41232948518688,3.3248861036222435,3.029207912161086,,0.726027854209833,3.1260278542098328,5.41232948518688,1.040139726079318,3.440139726079318,5.9059338552675,3.802988197715256
