ID_3,EventID,StationID,Stream_3,Units_3,Magnitude_3,Country_3,Depth_3,VS30_3,EpicentralDistance_3,MainPGA_3,MainPGV_3,MainPGD_3,MainMaxFrequency_3,MainMaxDI_3,MainMaxRI_3,MainMaxMMI_3,MainMaxMMI_PGA_3,MainMaxMMI_PGV_3,HVSR_3,MainHousnerIntensity_3,TrainPGA_3,TrainPGV_3,TrainPGD_3,TrainMaxFrequency_3,TrainMaxDI_3,TrainMaxRI_3,TrainMaxMMI_3,TrainMaxMMI_PGA_3,TrainMaxMMI_PGV_3,TrainHousnerIntensity_3,ID_4,Stream_4,Units_4,Magnitude_4,Country_4,Depth_4,VS30_4,EpicentralDistance_4,MainPGA_4,MainPGV_4,MainPGD_4,MainMaxFrequency_4,MainMaxDI_4,MainMaxRI_4,MainMaxMMI_4,MainMaxMMI_PGA_4,MainMaxMMI_PGV_4,HVSR_4,MainHousnerIntensity_4,TrainPGA_4,TrainPGV_4,TrainPGD_4,TrainMaxFrequency_4,TrainMaxDI_4,TrainMaxRI_4,TrainMaxMMI_4,TrainMaxMMI_PGA_4,TrainMaxMMI_PGV_4,TrainHousnerIntensity_4,TrainMaxDI,TrainMaxRI,TrainMaxMMI,MainMaxDI,MainMaxRI,MainMaxMMI,MainMaxMMI_PGA
155370130-3,15537,130,3.0,cm/s^2,7.6,Turkey,7.0,291.0,166.46,42.156799078397135,12.868223162706345,10.5193703792678,0.7629064513739724,2.523725958840119,4.923725958840119,8.237283649605903,6.442985866884604,7.488310654112883,0.4267429315696293,5.076372005752527,10.881984232565555,1.1251668540499018,2.3706531208396666,3.992015968063872,0.9405080067075002,3.3405080067075,5.749369724826072,4.158574230493257,2.895281475903983,0.2630487046595984,15537130-4,,,7.6,Turkey,7.0,291.0,166.46,78.99156158335538,21.79495218786909,15.661071862767168,0.3255649355727118,3.079710154450567,5.479710154450567,9.11097309985089,7.515339427748113,8.570074065667772,,,6.44420133863325,1.1946211100104347,1.6981030159268755,1.093258597814703,0.8246335218023649,3.2246335218023647,5.567281248546573,3.434415362702837,3.208101080630118,,0.9405080067075002,3.3405080067075,5.749369724826072,3.079710154450567,5.479710154450567,9.11097309985089,7.515339427748113
20586401-3,2058,6401,3.0,cm/s^2,,Turkey,5.9,286.0,127.92,2.318652539316635,0.1628291206437246,0.6394971422651456,0.843940232429441,0.0,1.6865069120703868,3.15022514753918,1.5505753519909162,-0.74808278373078,1.3670597861894678,0.0879734440016924,2.318652539316635,0.1685758686415736,0.0747218375925331,5.788423153692615,0.0,1.7052092525834437,3.179614539773983,1.5505753519909162,-0.6827079371052958,0.0505390984569763,20586401-4,,,,Turkey,5.9,286.0,127.92,2.957957337122004,0.5735358226112464,0.3693552662622794,1.1537167537016817,0.1008002451676336,2.5008002451676337,4.429828956691996,1.978464792468816,1.657491733485085,,,1.53887053419672,0.1596509561179162,0.1282559551218139,2.5247725829687657,0.0,1.6661840598998163,3.118289236985426,0.9460555415315076,-0.5816118300776725,,0.0,1.7052092525834437,3.179614539773983,0.1008002451676336,2.5008002451676337,4.429828956691996,1.978464792468816
21481201-3,2148,1201,3.0,cm/s^2,,Turkey,15.9,528.0,85.91,6.691690385898808,0.545279081323062,2.0798205270805834,2.2242314647377937,0.3203272072074866,2.7203272072074864,4.774799897040336,3.338381197220798,1.5299257528370775,0.4271195296443479,0.2342485023836179,2.280237539177369,0.1590757293403366,0.1351739151618234,4.990019960079841,0.0,1.7324005487093324,3.2223437194003792,1.522394673889417,-0.7920389737751439,0.0587532695778341,21481201-4,,,,Turkey,15.9,528.0,85.91,7.582619140371831,0.8177246209872496,2.3672025818641664,0.9500126970389654,0.5084200840503522,2.908420084050352,5.07037441779341,3.739810035898873,2.4198647566806235,,,1.209973910548264,0.133172147962556,0.1386296223861453,3.691265870041303,0.0,1.523002226889321,2.893289213683219,0.5801549214570447,-0.9664207058199143,,0.0,1.7324005487093324,3.2223437194003792,0.5084200840503522,2.908420084050352,5.07037441779341,3.739810035898873
21831301-3,2183,1301,3.0,cm/s^2,,Turkey,6.0,273.0,166.94,2.8652619542751223,0.2093372318240103,0.8123575208790274,4.4584768465365485,0.0,1.890191858713422,3.470301492263949,1.907626269927628,-0.2745262899673291,0.3232018980869416,0.0898144138097518,2.8652619542751223,0.2364817124325226,0.1618335442444457,4.391217564870259,0.0,1.957708135808592,3.5763984991277864,1.907626269927628,-0.0447185827508036,0.0684408590433438,21831301-4,,,,Turkey,6.0,273.0,166.94,5.069301858499138,0.7039712447852909,1.540861546488571,1.4409881793772945,0.5018254957520114,2.9018254957520115,5.060011493324589,3.161980212473983,2.524977461367949,,,2.921112955915332,0.3439524988014159,0.3065560037040974,1.546101136210546,0.0,2.1115346408067928,3.81812586412496,2.063871855314648,0.7709755796537254,,0.0,2.1115346408067928,3.81812586412496,0.5018254957520114,2.9018254957520115,5.060011493324589,3.161980212473983
21832301-3,2183,2301,3.0,cm/s^2,,Turkey,6.0,407.0,115.98,4.727354400706901,0.8025660719446529,6.064305143098712,0.935868387351,0.3187999030773299,2.71879990307733,4.772399847692947,2.7522169402333354,2.258446655581019,1.0195322375381275,0.3768980423859731,3.3141457884133887,0.1693211318169836,0.185756470650062,1.596806387225549,0.0,1.9107341589421896,3.502582249766298,2.153123329375863,-0.67439355333005,0.0598700317560258,21832301-4,,,,Turkey,6.0,407.0,115.98,7.488249124648042,1.0588580835908823,5.426448505075496,0.9541479909971642,0.8111277316566227,3.2111277316566227,5.546057864031836,3.6840932254295904,2.947465611196444,,,1.7435406641427953,0.2526617201156159,0.3644949385905303,1.596806387225549,0.0,1.791160365677798,3.31468057463654,1.1373738672758296,0.2106559572101591,,0.0,1.9107341589421896,3.502582249766298,0.8111277316566227,3.2111277316566227,5.546057864031836,3.6840932254295904
21832401-3,2183,2401,3.0,cm/s^2,,Turkey,6.0,315.0,116.31,4.271613370128419,1.1343289586044158,18.162239215446967,0.5037006578947368,0.3526992429120467,2.7526992429120467,4.825670238861788,2.58121908401088,2.9105673444140217,1.6402882691763363,0.4137599308417485,4.088415457318529,0.2334330143429123,0.3873555672458944,4.990019960079841,0.0,2.2229587637493733,3.9932209144633006,2.507279703824129,-0.0691757127964574,0.0677618104016834,21832401-4,,,,Turkey,6.0,315.0,116.31,9.545759131536588,1.7590304865612214,7.384459242589458,0.8262142803211397,0.9432233440834384,3.3432233440834382,5.753636683559688,4.012583912019685,3.790120623176191,,,3.392190519654972,0.247694700843142,0.288942419366002,3.387337873947533,0.0,2.2013082753668263,3.959198718433584,2.464327644451976,0.1624129048070499,,0.0,2.2229587637493733,3.9932209144633006,0.9432233440834384,3.3432233440834382,5.753636683559688,4.012583912019685
43360909-3,4336,909,3.0,cm/s^2,,Unknown,6.82,355.0,179.86,4.789314914209397,0.3180325746348709,0.123355428144341,0.7200576046083687,0.0,2.3909584536454327,4.257220427157108,2.774181863705529,0.5137267660370131,1.082178872049862,0.1892872183590001,4.40173898308406,0.2038831181852729,0.0697029280109215,4.590818363273453,0.0,1.9808530314076591,3.6127690493548927,2.6318367265535514,-0.3242853009570483,0.057510835983959,4336909-4,,,,Unknown,6.82,355.0,179.86,7.104532963349185,0.6112457069136488,0.2418907642719527,0.7792311263660099,0.3771499881149772,2.777149988114977,4.864092838466393,3.455886510466961,2.129334754661937,,,2.2231895392427505,0.1320219901392203,0.1010315860782611,3.3696493046175915,0.0,1.6385491962000378,3.07486302260006,1.5319797937774742,-0.9163594471550218,,0.0,1.9808530314076591,3.6127690493548927,0.3771499881149772,2.777149988114977,4.864092838466393,3.455886510466961
43362002-3,4336,2002,3.0,cm/s^2,,Unknown,6.82,356.0,159.59,7.907040859335825,0.9713594470891042,0.2407509737505525,0.5825242718446602,0.6397279239783012,3.039727923978301,5.276715309108758,3.619886309986285,2.6182290625203817,1.4004352311210602,0.4717001697361622,3.1720926406404666,0.1971349651333424,0.0786154576765307,4.590818363273453,0.0,1.9682660916351664,3.5929895725695475,2.0792273293930887,-0.3877257139001395,0.0683720922100076,43362002-4,,,,Unknown,6.82,356.0,159.59,9.690429728627509,1.4623802392585343,0.5886147552782864,0.8157875132744039,0.988145001720943,3.388145001720943,5.824227859847197,4.104133924453961,3.510756551514702,,,1.5197874712035513,0.1222831817668817,0.0915656646596819,6.974612858146167,0.0,1.498233043038276,2.8543662104887195,0.9769631733783026,-0.6234062971747916,,0.0,1.9682660916351664,3.5929895725695475,0.988145001720943,3.388145001720943,5.824227859847197,4.104133924453961
43362007-3,4336,2007,3.0,cm/s^2,,Unknown,6.82,192.0,171.99,4.644229462210195,0.9463613118220824,0.2423553310764686,0.9337532460356924,0.4251781498900004,2.82517814989,4.939565664112857,2.7222926912882066,2.569087282778435,1.2416169653445264,0.3913766563834052,3.24385393094756,0.1509874698396649,0.126606753048905,7.984031936127744,0.0,1.8032441795195249,3.333669424959253,2.116962050069302,-0.8903964613499062,0.0430041959280863,43362007-4,,,,Unknown,6.82,192.0,171.99,12.266293201605023,1.1807888972623468,0.3958020366322761,1.1593638717234374,0.9651504447220808,3.3651504447220804,5.78809355599184,4.449474058011209,3.1905212112960006,,,3.376458881562115,0.1338061052450241,0.1007162251105813,3.992015968063873,0.0,1.77158732972232,3.2839229467065025,2.332868004194294,-0.8707193450568846,,0.0,1.8032441795195249,3.333669424959253,0.9651504447220808,3.3651504447220804,5.78809355599184,4.449474058011209
45743523-3,4574,3523,3.0,cm/s^2,,Greece,26.83,414.0,179.34,0.9377932690271764,0.1387575335939203,0.055696562426833,1.4676397465714972,0.0,1.2418028954239542,2.451404549951928,0.0236640202237159,-1.049606478897377,0.4703899282329474,0.0594248391814197,,,,,,,,,,,45743523-4,,,,Greece,26.83,414.0,179.34,2.4154980381616964,0.2948870764638726,0.0908974526611483,0.6903629550615877,0.0,2.054307632322275,3.728197707935004,1.6529500602367024,0.3896789751834029,,,2.4154980381616964,0.4030011719148088,0.4890102166258252,1.9860028684762872,0.0,2.2830740159315126,4.087687739320948,1.6529500602367024,1.116540008430596,,,,,0.0,2.054307632322275,3.728197707935004,1.6529500602367024
45743526-3,4574,3526,3.0,cm/s^2,,Greece,26.83,198.0,168.59,1.4462097677161412,0.2244159709454784,0.0919939598565928,0.9463432561558248,0.0,1.6468966741208988,3.0879804879042694,0.7543383320585142,-0.1434266772956998,0.7524115250484492,0.1141267999246943,1.2765800337072342,0.2543556045443648,0.4702267099420796,1.3972055888223551,0.0,1.809811756203312,3.343989902605204,0.5438906168144619,0.0926152916583453,0.0715487957778464,45743526-4,,,,Greece,26.83,198.0,168.59,4.117265671765512,0.760468870253229,0.3344545318544442,0.7120395725835194,0.2461997537562893,2.646199753756289,4.658313898759883,2.640317904421299,2.431279675486384,,,2.225602063321819,0.3027435739183578,0.3565525666762314,1.3828748962625768,0.2753553434572138,2.675355343457214,4.704129825432765,2.250590094605862,2.1806376449328977,,0.2753553434572138,2.675355343457214,4.704129825432765,0.2461997537562893,2.646199753756289,4.658313898759883,2.640317904421299
45745904-3,4574,5904,3.0,cm/s^2,,Greece,26.83,225.0,168.32,10.56528995334164,1.240386937178718,0.2280766160950451,1.5268107976059606,0.8127582138299393,3.212758213829939,5.54862005030419,4.108755436484373,3.0790381782426905,0.7403134471289847,0.4893709650966605,4.303963130985172,0.2631648399530041,0.2302452685374467,3.992015968063872,0.0,2.1538418014222844,3.884608545092161,2.5939454186036217,0.1567889343358857,0.0876290351592464,45745904-4,,,,Greece,26.83,225.0,168.32,20.71380389841765,2.4314014679662126,0.5969492847318425,1.1303185646894234,1.4679390333303683,3.867939033330369,6.578189909519151,5.4441520422089535,4.387431050612583,,,3.6879609134765534,0.1974143782528775,0.0441584043026219,4.489908933813171,0.0,2.144216683645827,3.869483360014871,2.3996436270403394,0.0670304550206495,,0.0,2.1538418014222844,3.884608545092161,1.4679390333303683,3.867939033330369,6.578189909519151,5.4441520422089535
523299003-3,5232,99003,3.0,cm/s^2,,Unknown,41.74,,172.45,2.369293218898481,0.2159306623894553,0.081724050055659,1.1686143572621035,0.0,1.864920502018311,3.430589360314489,1.587019463666191,-0.2160758642063531,1.2778155187663045,0.0931987411486502,1.8144959398920275,0.0962019094817323,0.0264455406205503,4.191616766467066,0.0,1.3708040661342114,2.6541206753537607,1.1370083069606904,-1.7399827754212858,0.0317751458186608,523299003-4,,,,Unknown,41.74,,172.45,4.27895385855731,0.4628237165772788,0.0933835718361333,1.4932735611626262,0.0202794092448901,2.42027940924489,4.303296214527684,2.630825957835219,1.3119126200385909,,,1.8162545400386183,0.117817981533955,0.0690982709668105,1.6699800928823862,0.0,1.6795538807632575,3.139298955485119,1.72930286183071,-0.8225639340960438,,0.0,1.6795538807632575,3.139298955485119,0.0202794092448901,2.42027940924489,4.303296214527684,2.630825957835219
523299004-3,5232,99004,3.0,cm/s^2,,Unknown,41.74,407.0,159.77,1.95159108848644,0.1609398852876959,0.3685900791535346,0.9406605841997312,0.0,1.6464502270483852,3.087278928218891,1.259870201481485,-0.7700795965052967,2.024777269649615,0.0779938374982885,1.8115081723454232,0.1242799230579578,0.1890690674771866,6.586826347305389,0.0,1.5311525781492925,2.9060969085203165,1.1342285159907006,-1.2572997654181144,0.0348414501589756,523299004-4,,,,Unknown,41.74,407.0,159.77,2.9611940471343585,0.2494267531456019,0.1015031991924298,1.904628169342944,0.0,1.9398398143705988,3.548319708296656,1.978177289664476,0.1869396899406541,,,1.9995764830515863,0.1264076579080016,0.0979893583707519,6.248493350298814,0.0,1.5263118687840072,2.898490079517725,1.3791825072489077,-1.193357652045432,,0.0,1.5311525781492925,2.9060969085203165,0.0,1.9398398143705988,3.548319708296656,1.978177289664476
53351013-3,5335,1013,3.0,cm/s^2,6.5,Greece,25.02,223.0,161.55,9.767304800370404,1.2868537587446116,0.7494931897909407,2.0152563420259,0.695603375946445,3.0956033759464447,5.364519590772985,3.9762850925152953,3.148356708060357,0.8388858198623445,0.3800988778585876,1.7665095390223036,0.0958398698711479,0.1375082746929849,1.7964071856287425,0.0,1.317991044103612,2.5711287835913903,1.0917984932579985,-1.7470894252854192,0.0273265705099987,53351013-4,,,6.5,Greece,25.02,223.0,161.55,26.52490794347908,1.8291495862458889,1.3282166086867988,1.6905699687131863,1.4689354681154931,3.868935468115493,6.57975573561006,5.818707451971281,3.825451974490858,,,1.7354775188334142,0.1365216055279464,0.0385457805504126,3.092202272421092,0.0,1.586911173872166,2.993717558941975,1.2168649985416815,-0.8979174010434829,,0.0,1.586911173872166,2.993717558941975,1.4689354681154931,3.868935468115493,6.57975573561006,5.818707451971281
53351712-3,5335,1712,3.0,cm/s^2,6.5,Greece,25.02,682.0,170.62,15.525729254809978,1.2604638881892627,0.8017621796245027,9.49377593360996,0.6909506485443333,3.090950648544333,5.357208161998238,4.75804600084237,3.1093019699347058,0.4940192234932434,0.4790448017282552,2.3903782131656954,0.1003969456259414,0.1231946141678036,7.7844311377245505,0.0,1.424471206020948,2.738454752318632,1.6019643591681638,-1.6595330279230875,0.029989304728849,53351712-4,,,6.5,Greece,25.02,682.0,170.62,43.8210867164309,2.154763708077985,1.0854649385638018,4.690107814740835,1.7768101458757948,4.176810145875795,7.063558800661963,6.640016637187132,4.2281367214527545,,,2.149567861210709,0.0949449510066707,0.0482650782532426,4.752846666583097,0.0,1.8217079354850207,3.362683898619319,1.7527781157139053,-0.8439958374135657,,0.0,1.8217079354850207,3.362683898619319,1.7768101458757948,4.176810145875795,7.063558800661963,6.640016637187132
53355904-3,5335,5904,3.0,cm/s^2,6.5,Greece,25.02,225.0,160.11,33.75963527813732,4.309193158595721,1.4524897136275152,0.4455198371548181,1.879178805806196,4.279178805806196,7.224423837695451,6.068296845786835,5.426278473670813,2.1769929844216693,2.023022425800248,2.6358255610957,0.23342571069747,0.2682945497780591,1.596806387225549,0.0,1.865407016678424,3.431353883351808,1.7668403279061171,-0.0692346864778166,0.0763572003763898,53355904-4,,,6.5,Greece,25.02,225.0,160.11,79.98828879575598,11.54225157948323,3.0983262133949303,0.9698935599067235,2.88217337071052,5.28217337071052,8.800558153973675,7.643012878528712,7.932374553163352,,,3.429477706373633,0.244357697670365,0.1680223904177673,3.092202272421092,0.0,2.185901283997023,3.934987731995322,2.376391688290472,0.3912092632364192,,0.0,2.185901283997023,3.934987731995322,2.88217337071052,5.28217337071052,8.800558153973675,7.643012878528712
6531404-3,653,1404,3.0,cm/s^2,,Turkey,15.9,348.0,80.55,131.6983256884984,14.705624654421571,30.10962638395453,0.6274509803921569,2.98728916076298,5.38728916076298,8.965740109770397,8.364449705409394,7.739878289607202,5.557230650242978,4.867124753823985,34.855179661686726,3.5848917281478307,5.8493682096404935,7.992007992007992,1.8034569197616737,4.203456919761674,7.105432302482631,6.122166292853595,5.079426028896741,0.6580462281562806,6531404-4,,,,Turkey,15.9,348.0,80.55,128.06475929748777,18.906258334267363,160.06781133499456,3.4868898197603,3.4243117585697265,5.824311758569726,9.652489906323854,8.433610410004345,8.60711325835615,,,27.87969223210616,11.241344855963204,33.332376981505234,4.811826005511406,2.6532107177566515,5.053210717756651,8.440759699331881,5.856227569061529,7.963519255201109,,2.6532107177566515,5.053210717756651,8.440759699331881,3.4243117585697265,5.824311758569726,9.652489906323854,8.433610410004345
67160910-3,6716,910,3.0,cm/s^2,6.2,Unknown,15.86,271.0,171.06,3.661942835119659,0.7716019177867813,0.5280924599427844,0.7282508857105365,0.23962335035732,2.63962335035732,4.647979550561503,2.321455700788378,2.184286915035856,1.6576576576576574,0.3395225647751488,2.3259962059867063,0.2375294005494234,0.2652950467280788,4.191616766467066,0.0,2.0347783847208167,3.697508890275569,1.5559093637686845,-0.0363866023798955,0.0618466457857376,6716910-4,,,6.2,Unknown,15.86,271.0,171.06,7.078379023647522,1.109205204113652,1.123928124639589,1.2071906573940423,0.6591319279284596,3.05913192792846,5.307207315316151,3.5582467778446243,2.8868001098555656,,,1.7164887768670265,0.2912104001725754,0.3720009110803309,0.6914374481312884,0.0,1.926539903546828,3.527419848430729,1.0652153722964717,0.4179111415677878,,0.0,2.0347783847208167,3.697508890275569,0.6591319279284596,3.05913192792846,5.307207315316151,3.5582467778446243
67160911-3,6716,911,3.0,cm/s^2,6.2,Unknown,15.86,307.0,153.15,4.549787995690906,0.6513399774283462,0.2155147674025744,1.3036248752909878,0.3157233878832361,2.715723387883236,4.767565323816513,2.6876376674402094,1.864925568920356,1.1274471279129086,0.219256360502748,1.7131464334580149,0.1429826459171752,0.2180157712865046,1.3972055888223551,0.0,1.5780757080445351,2.979833255498556,1.0400577853623454,-0.993070349993185,0.0457025780124954,6716911-4,,,6.2,Unknown,15.86,307.0,153.15,9.85987853444121,0.982575390760166,0.2725947188752899,1.469768121522648,0.8232518537796695,3.223251853779669,5.56511005593948,4.059586645697394,2.785953056695842,,,1.6883155222267716,0.217823774549328,0.1981815371598015,2.8924903685008863,0.0,1.92215472542946,3.5205288542462942,1.0672729127225056,0.3103989537923746,,0.0,1.92215472542946,3.5205288542462942,0.8232518537796695,3.223251853779669,5.56511005593948,4.059586645697394
67160920-3,6716,920,3.0,cm/s^2,6.2,Unknown,15.86,894.0,170.7,1.0034925605680325,0.2586840709526565,0.1767014890714837,0.4766862089748507,0.0,1.6215527495635436,3.048154320742712,0.1378809864717483,0.1244204411055438,0.982741816082715,0.0993302068082044,1.0034925605680325,0.4061418928431254,0.9332823499565748,0.3992015968063872,0.0,1.775367178577333,3.289862709192952,0.1378809864717483,0.9746616022427292,0.0904610681512353,6716920-4,,,6.2,Unknown,15.86,894.0,170.7,2.1165828993006506,0.4446947222358918,0.1829931637072694,0.4684594707095294,0.0,2.1290937089378503,3.8457186854737646,1.6554389900396362,1.2046609526229493,,,1.4309104674313278,0.2064079140494055,0.224083341030911,2.594810379241517,0.0,1.5540096344431185,2.942015139839186,0.8827206264405382,-0.2788466005247239,,0.0,1.775367178577333,3.289862709192952,0.0,2.1290937089378503,3.8457186854737646,1.6554389900396362
