ID_3,EventID,StationID,Stream_3,Units_3,Magnitude_3,Country_3,Depth_3,VS30_3,EpicentralDistance_3,MainPGA_3,MainPGV_3,MainPGD_3,MainMaxFrequency_3,MainMaxDI_3,MainMaxRI_3,MainMaxMMI_3,MainMaxMMI_PGA_3,MainMaxMMI_PGV_3,HVSR_3,MainHousnerIntensity_3,TrainPGA_3,TrainPGV_3,TrainPGD_3,TrainMaxFrequency_3,TrainMaxDI_3,TrainMaxRI_3,TrainMaxMMI_3,TrainMaxMMI_PGA_3,TrainMaxMMI_PGV_3,TrainHousnerIntensity_3,ID_4,Stream_4,Units_4,Magnitude_4,Country_4,Depth_4,VS30_4,EpicentralDistance_4,MainPGA_4,MainPGV_4,MainPGD_4,MainMaxFrequency_4,MainMaxDI_4,MainMaxRI_4,MainMaxMMI_4,MainMaxMMI_PGA_4,MainMaxMMI_PGV_4,HVSR_4,MainHousnerIntensity_4,TrainPGA_4,TrainPGV_4,TrainPGD_4,TrainMaxFrequency_4,TrainMaxDI_4,TrainMaxRI_4,TrainMaxMMI_4,TrainMaxMMI_PGA_4,TrainMaxMMI_PGV_4,TrainHousnerIntensity_4,TrainMaxDI,TrainMaxRI,TrainMaxMMI,MainMaxDI,MainMaxRI,MainMaxMMI,MainMaxMMI_PGA
81784610-3,8178,4610,3.0,cm/s^2,6.8,Turkey,8.06,215.0,163.73,17.65446722605504,3.407417182177773,2.0889174690328702,0.9102820495138269,1.575372918276944,3.975372918276944,6.747014585863769,4.974783328626111,4.983725841224085,0.5877928709476007,1.5348273388786255,6.571360839169484,0.6901648630356347,0.3053568286514376,0.998003992015968,0.479414136155675,2.879414136155675,5.024793642530346,3.307773244761212,1.9740553480111176,0.2429765397156903,81784610-4,,,6.8,Turkey,8.06,215.0,163.73,22.7946137400561,5.857630701128727,4.703347583165375,0.5350572992557983,2.052572981545312,4.452572981545312,7.496900399571204,5.546723113300746,6.343101964968691,,,6.231428944924208,0.433358501430744,0.250947897886546,2.112376296259154,0.4970426211000494,2.897042621100049,5.052495547442935,3.941073325911164,1.839709708372236,,0.4970426211000494,2.897042621100049,5.052495547442935,2.052572981545312,4.452572981545312,7.496900399571204,5.546723113300746
81784611-3,8178,4611,3.0,cm/s^2,6.8,Turkey,8.06,731.0,169.96,6.787911610775685,1.9287717910373088,1.620918907188554,0.5723743190124819,0.9519085063957377,3.3519085063957377,5.767284795764731,3.362463317251821,3.911118870368397,,0.7701815973977093,2.671566645209829,0.229107546053343,0.1643102919525596,3.79241516966068,0.0,2.0656339659315988,3.7459962321782254,1.7895591929940289,-0.1044290314939826,0.0768554285055827,81784611-4,,,6.8,Turkey,8.06,731.0,169.96,10.678271708230728,3.010276299561457,1.8165835642335653,0.6219145002811308,1.4552933594646604,3.85529335946466,6.558318136301609,4.1898345567166055,5.396196576106307,,,4.129679063419689,0.2081529825248567,0.143760411321751,3.7341890087564287,0.0,2.1528987948205063,3.883126677575081,2.803302617052623,-0.0952320737748357,,0.0,2.1528987948205063,3.883126677575081,1.4552933594646604,3.85529335946466,6.558318136301609,4.1898345567166055
930302-3,93,302,3.0,cm/s^2,,Turkey,5.0,198.0,0.47,135.52644259816697,13.9910001156535,26.014741813743445,0.5358099660653688,2.879173846111985,5.279173846111985,8.795844615318833,8.41278136663327,7.645983619183556,1.8086213288334048,7.078594228081343,135.52644259816697,8.590385930912475,6.171000097039235,5.794205794205794,2.876780394040962,5.276780394040962,8.792083476350083,8.41278136663327,6.72661501099603,2.428566769702069,93302-4,,,,Turkey,5.0,198.0,0.47,295.66834808298086,36.311309384077454,36.51928691484756,0.969077332827329,4.002194771117566,6.402194771117566,10.560591783184746,9.866134382340103,9.912977836275685,,,295.66834808298086,33.14483082405512,12.440533618584375,3.095291385580353,4.002194771117566,6.402194771117566,10.560591783184746,9.866134382340103,9.912977836275685,,4.002194771117566,6.402194771117566,10.560591783184746,4.002194771117566,6.402194771117566,10.560591783184746,9.866134382340103
931501-3,93,1501,3.0,cm/s^2,,Turkey,5.0,335.0,39.2,34.39435814039712,6.979186339626836,70.15306441035156,2.690937870993273,2.1390878864079506,4.53908788640795,7.632852392926779,6.099716320367671,6.335112805326872,0.2482638678843254,1.417292644268208,15.353415170767738,4.538935637495912,12.53748049034538,0.5988023952095809,1.722674256746371,4.122674256746371,6.978488117744297,4.739220195957497,5.524180466125137,0.7433344370568389,931501-4,,,,Turkey,5.0,335.0,39.2,37.15310329110948,12.53836348224172,150.97548590207307,0.6680626440892019,2.566904661209949,4.966904661209949,8.305135896187064,6.321742821835716,7.636108581877209,,,25.57992540874688,9.027348466829594,28.218931089982707,0.5988023952095809,2.2492210195205944,4.649221019520594,7.805918744960933,5.792903107859555,7.190137599287253,,2.2492210195205944,4.649221019520594,7.805918744960933,2.566904661209949,4.966904661209949,8.305135896187064,6.321742821835716
932002-3,93,2002,3.0,cm/s^2,,Turkey,5.0,356.0,95.18,9.180057389707986,1.4563097109821723,6.626694205854295,0.6551602676998942,0.7709002015394844,3.1709002015394843,5.482843173847761,3.871691518953764,3.3815212554268,1.0402913223611032,0.7683165529364644,3.276951841883884,0.2310531715837007,0.0656957660227967,1.996007984031936,0.0,2.1392889121290355,3.861739719059913,2.1340857092855177,-0.0884902051395872,0.1121436904133208,932002-4,,,,Turkey,5.0,356.0,95.18,15.027468302181372,3.473084199649499,3.630716131975391,0.6815575412439774,1.5943883791017248,3.994388379101725,6.776896024302711,4.7561857468146425,5.168988087879001,,,2.812384019311052,0.244417910734172,0.1168599391098609,1.8935794372265744,0.0,2.329145268303884,4.160085421620389,2.341982933694491,0.629851084960404,,0.0,2.329145268303884,4.160085421620389,1.5943883791017248,3.994388379101725,6.776896024302711,4.7561857468146425
93370207-3,9337,207,3.0,cm/s^2,4.9,Turkey,14.29,660.0,56.31,3.7051462661118433,0.1464914144782073,0.0252129103415952,2.088865285891308,0.0,1.8622940693499648,3.426462108978517,2.341240006855093,-0.947375171591336,2.443853865904661,0.0522759559235064,2.3953548041894828,0.0489688340038,0.0441952078599268,8.982035928143713,0.0,1.282363871075519,2.5151432259758155,1.6054725012138191,-3.012748227878273,0.009880085668047,9337207-4,,,4.9,Turkey,14.29,660.0,56.31,8.198743397907121,0.2831876194797966,0.0275300508123751,5.104881504279518,0.1361983494823754,2.536198349482375,4.485454549186589,3.685862818705177,0.3229945228563524,,,2.718971983413637,0.062591103007382,0.023110753662367,7.518885509715514,0.0,1.716140275454581,3.196791861428628,2.4553679271420683,-1.8181980066199657,,0.0,1.716140275454581,3.196791861428628,0.1361983494823754,2.536198349482375,4.485454549186589,3.685862818705177
93370209-3,9337,209,3.0,cm/s^2,4.9,Turkey,14.29,693.0,85.92,1.6128081773391607,0.0623078395156062,0.0132364993136431,2.8771829373031776,0.0,0.8527023419264061,1.839960823027209,0.9382512718655696,-2.558684713972468,2.109130032577282,0.0370428757991517,1.6128081773391607,0.0470770337205421,0.0577520311537615,13.173652694610778,0.0,0.9447745358694396,1.9846456992234047,0.9382512718655696,-3.087008547021246,0.0088889188640142,9337209-4,,,4.9,Turkey,14.29,693.0,85.92,3.937602762069091,0.101004243337824,0.0191803059805563,6.068352942285051,0.0,1.7456973207165154,3.2432386468402385,2.7775433091637347,-1.6394441013209358,,,3.125657079094342,0.0449107918476464,0.0278451696288345,13.164576804663591,0.0,1.6023537299060258,3.017984432709469,2.7775433091637347,-2.5876699755988337,,0.0,1.6023537299060258,3.017984432709469,0.0,1.7456973207165154,3.2432386468402385,2.7775433091637347
93372301-3,9337,2301,3.0,cm/s^2,4.9,Turkey,14.29,407.0,52.88,4.521479444183714,0.2458660986480656,0.0382943465395791,1.3165013525698828,0.0,2.198065280569352,3.954102583751839,2.6771096980172264,0.0286321409429524,1.224476711237619,0.0807665172554443,4.115826576805856,0.0911306907306901,0.1094049124085337,8.982035928143713,0.0,1.708441118073026,3.1846931855433267,2.518551248919757,-1.842055366712644,0.0166808555046101,93372301-4,,,4.9,Turkey,14.29,407.0,52.88,10.36990787780034,0.5592170796139063,0.0531197095217648,1.6120252465346472,0.6421471725295035,3.0421471725295035,5.280516985403505,4.180133040041484,1.5880876537115876,,,3.9418952605479727,0.0567713247180558,0.0131398038056664,13.188765298747937,0.0,1.4862987862024262,2.8356123783180984,2.5024449491367373,-2.6560377733814464,,0.0,1.708441118073026,3.1846931855433267,0.6421471725295035,3.0421471725295035,5.280516985403505,4.180133040041484
93372308-3,9337,2308,3.0,cm/s^2,4.9,Turkey,14.29,450.0,49.02,3.976725569104811,0.28665543112343,0.0536496595665934,1.419031719532554,0.0,2.158789127923358,3.892382915308135,2.460557514599397,0.3179431575843119,1.0299998320287431,0.1065167649362191,1.7565501870006306,0.0790184045154062,0.0432209220671005,11.57684630738523,0.0,1.257894649002194,2.4766915912891623,1.082261625459191,-2.110859366953928,0.0171604023493937,93372308-4,,,4.9,Turkey,14.29,450.0,49.02,9.807538399307468,0.6664753955031583,0.0929489846206276,1.4616024327619892,0.6104788631211477,3.010478863121148,5.230752499190375,4.030273613715849,1.9124122893083952,,,2.258385545520333,0.1176986966839469,0.0584157825915969,2.5871220352925595,0.0,1.9925395622955475,3.631133597893003,2.1310252237755254,-0.4045585267249652,,0.0,1.9925395622955475,3.631133597893003,0.6104788631211477,3.010478863121148,5.230752499190375,4.030273613715849
93372309-3,9337,2309,3.0,cm/s^2,4.9,Turkey,14.29,860.0,52.39,9.551997030952286,0.1309749458993054,0.0317924753704976,13.425579655946146,0.0,2.139644223265392,3.86229806513133,3.9386857904341066,-1.1584030916529544,0.8284367954135083,0.0271624986813921,4.428335558437313,0.0467639631134041,0.0240667645010003,20.35928143712575,0.0,1.4541485526467255,2.785090582730569,2.641998188405257,-3.09958491773972,0.0049170226414873,93372309-4,,,4.9,Turkey,14.29,860.0,52.39,20.104034094946343,0.3659212736467648,0.0192702365400701,11.122244186740817,0.7109607397475383,3.1109607397475383,5.388652591031846,5.495953834346971,0.8795302309920656,,,5.456707773111873,0.0575989882150982,0.0134285976084853,17.33886537363992,0.0,1.678619105027786,3.1378300221865207,3.173645224219687,-2.54523310782932,,0.0,1.678619105027786,3.1378300221865207,0.7109607397475383,3.1109607397475383,5.388652591031846,5.495953834346971
123021026-3,12302,1026,3.0,cm/s^2,4.8,Greece,10.75,266.0,48.2,2.667216049087643,0.0870505572710807,0.0165658738901373,6.00263852242744,0.0,1.3927620562313967,2.688626088363624,1.7868100321560747,-1.9283914483362992,0.4003916021081233,0.0185035397728341,1.9998652363245824,0.0991410355183377,0.0591397424202529,5.9880239520958085,0.0,1.4650808305359224,2.802269876556449,1.3010868396612372,-1.6832600237196038,0.016598592741495,123021026-4,,,4.8,Greece,10.75,266.0,48.2,4.211226443155547,0.1890136036033908,0.0194027187564097,2.403406054870661,0.0,2.100392253449232,3.8006163982773646,2.5758548360212017,-0.3183900913551145,,,2.432702824875494,0.1143950010111049,0.1009719633910374,2.8924903685008863,0.0,1.9551863712621151,3.572435726269038,2.202481662560523,-0.8029454785036125,,0.0,1.9551863712621151,3.572435726269038,0.0,2.100392253449232,3.8006163982773646,2.5758548360212017
123021027-3,12302,1027,3.0,cm/s^2,4.8,Greece,10.75,369.0,45.62,4.150168207372239,0.2433128476025301,0.0182792431597185,2.28270412642669,0.0,2.204809995885021,3.964701422105033,2.532567175438557,0.0089562801365721,1.218960443487663,0.0457314206873221,3.8296609165841926,0.2470659397221916,0.0257789303536737,2.395209580838324,0.0,2.212689763024028,3.9770839133234728,2.396994693146979,0.0378078909551882,0.0449529258279708,123021027-4,,,4.8,Greece,10.75,369.0,45.62,4.017098474867773,0.1845847454527862,0.0171026677144724,2.7825260343001963,0.0,2.0980655432941564,3.7969601394622456,2.5265300080946,-0.3174007766485656,,,4.017098474867773,0.2109513308901606,0.153514925923622,3.393213572854292,0.0,2.254400374881995,4.04262916052885,2.5265300080946,0.0975171393304834,,0.0,2.254400374881995,4.04262916052885,0.0,2.204809995885021,3.964701422105033,2.532567175438557
106140918-3,10614,918,3.0,cm/s^2,6.6,Greece,16.54,630.0,75.17,21.181062490177148,4.127226848408063,1.1984232075329684,0.5999428625845157,1.699247648831315,4.099247648831315,6.941674876734924,5.281981028044167,5.344957195790766,1.0717518618663362,2.010535039554336,7.835730216844124,0.3953633813179425,0.5705861803314735,6.387225548902196,0.1764064315423381,2.576406431542338,4.54863867813796,3.6046046804280265,0.923964559787594,0.129968514008729,10614918-4,,,6.6,Greece,16.54,630.0,75.17,34.548202444380486,5.648167321416066,3.233830149676673,0.6429898799883742,2.020305478261628,4.420305478261628,7.446194322982557,6.284458569980276,6.13540420530089,,,4.95430115848025,0.6217324821259593,0.6732398062521721,2.563918678376273,0.4994116684200378,2.8994116684200377,5.056218336088631,2.939662413564748,2.728713572037764,,0.4994116684200378,2.8994116684200377,5.056218336088631,2.020305478261628,4.420305478261628,7.446194322982557,6.284458569980276
106140919-3,10614,919,3.0,cm/s^2,6.6,Greece,16.54,986.0,105.76,14.940290899564312,1.1947118235739322,1.0880871344973564,5.567554595632349,0.9625382620626564,3.3625382620626563,5.783988697527032,4.693210564287315,3.008322121990445,1.0510624606597925,0.4650840201610984,7.051750993903479,0.3359321685946652,0.4224811406526957,7.984031936127744,0.0241524365439088,2.424152436543909,4.309382400283285,3.4267854253426187,0.6169319158932169,0.0948804344674027,10614919-4,,,6.6,Greece,16.54,986.0,105.76,20.093838035895715,1.1244405152805843,1.0818973266984602,5.851847633143072,1.0492592463508137,3.449259246350813,5.920264529979849,5.361817606467263,2.996630336353088,,,5.886837778238683,0.303653473821048,0.6284007035420252,3.1114685165907976,0.0738549829060521,2.473854982906052,4.38748640170951,3.492100068612698,0.8170814641714772,,0.0738549829060521,2.473854982906052,4.38748640170951,1.0492592463508137,3.449259246350813,5.920264529979849,5.361817606467263
106140920-3,10614,920,3.0,cm/s^2,6.6,Greece,16.54,894.0,68.9,22.639035473559574,2.057872364654735,1.1483163727471375,6.247024092943529,1.3106102425794677,3.710610242579468,6.3309589526248775,5.394268161199995,4.033236008031684,0.2155382151479711,0.5300428538117303,8.172119867232396,0.5728158879530139,0.3417078082751011,1.596806387225549,0.5729303321428593,2.97293033214286,5.171747664795921,3.675508084185205,1.6227853400453005,0.116444568956091,10614920-4,,,6.6,Greece,16.54,894.0,68.9,28.52463220436164,2.905122671526265,1.79812487465844,1.3464724229794218,1.758207945022796,4.158207945022796,7.034326770750108,5.932190682503129,4.822112249491724,,,6.071910457634357,0.5304422380788048,0.6896372039828454,4.551598503389773,0.6699153802239732,3.069915380223973,5.324152740351957,3.310337566099459,2.600379752863872,,0.6699153802239732,3.069915380223973,5.324152740351957,1.758207945022796,4.158207945022796,7.034326770750108,5.932190682503129
93374406-3,9337,4406,3.0,cm/s^2,4.9,Turkey,14.29,815.0,69.43,2.8899088685539334,0.0707337572684958,0.0174143230188305,10.174255199550307,0.0,1.5480959666044758,2.9327222332356047,1.922074029942636,-2.319620001561953,0.8479298154733695,0.0226350142204397,2.8899088685539334,0.0875575452553239,0.0861327979216422,13.173652694610778,0.0,1.6637610816456012,3.114481699728802,1.922074029942636,-1.9174458746089469,0.0148809816342772,93374406-4,,,4.9,Turkey,14.29,815.0,69.43,4.667568631714618,0.1367174370456277,0.017939074007415,8.627054333933662,0.0,2.119439272329801,3.8305474279468297,2.7878564299775705,-0.6024896631811831,,,3.644770759154989,0.0641123935116235,0.0372797532073089,12.271797324502511,0.0,1.71069799944879,3.188239713419527,2.6736402248324604,-1.962203663957676,,0.0,1.71069799944879,3.188239713419527,0.0,2.119439272329801,3.8305474279468297,2.7878564299775705
93374407-3,9337,4407,3.0,cm/s^2,4.9,Turkey,14.29,735.0,66.74,2.397870889523372,0.0724016472957184,0.0133507535692998,4.532809687448863,0.0,1.364309151186841,2.6439143804364647,1.6072433890533526,-2.275691738031312,0.5845589210168556,0.0358664768869144,1.4678564279983453,0.0414151944762062,0.0286481753331984,5.189620758483034,0.0,0.9581030576151262,2.005590519109484,0.7793990209475724,-3.328526880098165,0.0089429965416685,93374407-4,,,4.9,Turkey,14.29,735.0,66.74,3.723850416832271,0.1642796990360472,0.0326929134709134,2.6496943400698574,0.0,1.8071919125129043,3.339873005377421,2.37305972472978,-0.6087069815980279,,,3.723850416832271,0.1997815733945161,0.1991236835613359,3.7341890087564287,0.0,1.9373903158472008,3.544470496331315,2.37305972472978,-0.2988227414845714,,0.0,1.9373903158472008,3.544470496331315,0.0,1.8071919125129043,3.339873005377421,2.37305972472978
106141026-3,10614,1026,3.0,cm/s^2,6.6,Greece,16.54,266.0,167.81,9.131018182139416,1.0625339641371891,0.4476043175879797,0.9480779201540628,0.7162677956091484,3.1162677956091485,5.396992250242947,3.862656602203552,2.787327844290281,2.102854505264808,0.4455268542312262,4.395459003970517,0.3500109930754237,0.2616694914025259,2.1956087824351296,0.0,2.241011083107753,4.021588844883612,2.6294284440242843,0.6943145120272547,0.1452484386215809,106141026-4,,,6.6,Greece,16.54,266.0,167.81,27.504866374306385,2.754515049175676,0.9252885989192614,1.99366992573806,1.7589579856301176,4.158957985630117,7.035505405990184,5.933070495981655,4.810282902211421,,,3.459839809884265,0.3669396987366621,0.251671668027546,1.7964071856287425,0.0,2.311640259288524,4.132577550310537,2.552475490406855,0.79374542516924,,0.0,2.311640259288524,4.132577550310537,1.7589579856301176,4.158957985630117,7.035505405990184,5.933070495981655
106143503-3,10614,3503,3.0,cm/s^2,6.6,Greece,16.54,193.0,133.84,16.69684322455425,1.9767188965799527,3.812019421606538,1.8478521718262533,1.3430664914617645,3.743066491461765,6.381961629439916,4.880711890618292,3.957400926564476,0.7288942961247938,0.66368661637352,7.770731752091082,0.8462601174456619,0.7369722909909908,1.3972055888223551,0.6925385501765893,3.092538550176589,5.359703435991783,3.5905540865901795,2.3583668128262727,0.2191012096921145,106143503-4,,,6.6,Greece,16.54,193.0,133.84,50.4292761157684,6.073577482287504,15.968335867047,1.3468889081259687,2.2414774403167184,4.641477440316718,7.793750263354843,6.915672764899464,6.294878597830621,,,8.285837858143399,0.8497856759890636,0.307729612056291,1.3972055888223551,0.6809106872011585,3.0809106872011585,5.341431079887535,3.840245020442592,2.4755626540065983,,0.6925385501765893,3.092538550176589,5.359703435991783,2.2414774403167184,4.641477440316718,7.793750263354843,6.915672764899464
106143512-3,10614,3512,3.0,cm/s^2,6.6,Greece,16.54,468.0,70.05,28.96441754353392,1.6413212621651982,1.2220079504926509,1.237977335491858,1.486287611573827,3.886287611573827,6.607023389616014,5.809882881375722,3.606940204530026,1.5680425365562327,0.7549914264479991,28.025176259932085,1.1124255295992609,1.0091008502555772,12.17564870259481,1.216301961320885,3.616301961320885,6.182760224932819,5.754277801895897,2.8738159106033576,0.311964475034674,106143512-4,,,6.6,Greece,16.54,468.0,70.05,61.09545828038372,3.683876269482705,5.680527124350858,1.9412011213437792,2.1231332028133667,4.523133202813367,7.607780747278148,7.109975565043835,5.308045584172259,,,12.744994028037585,0.6423476249332535,0.6073938955174285,14.7488648318652,1.0232628902322602,3.42326289023226,5.879413113222123,5.80541291337804,2.8717893624265467,,1.216301961320885,3.616301961320885,6.182760224932819,2.1231332028133667,4.523133202813367,7.607780747278148,7.109975565043835
