ID_3,EventID,StationID,Stream_3,Units_3,Magnitude_3,Country_3,Depth_3,VS30_3,EpicentralDistance_3,MainPGA_3,MainPGV_3,MainPGD_3,MainMaxFrequency_3,MainMaxDI_3,MainMaxRI_3,MainMaxMMI_3,MainMaxMMI_PGA_3,MainMaxMMI_PGV_3,HVSR_3,MainHousnerIntensity_3,TrainPGA_3,TrainPGV_3,TrainPGD_3,TrainMaxFrequency_3,TrainMaxDI_3,TrainMaxRI_3,TrainMaxMMI_3,TrainMaxMMI_PGA_3,TrainMaxMMI_PGV_3,TrainHousnerIntensity_3,ID_4,Stream_4,Units_4,Magnitude_4,Country_4,Depth_4,VS30_4,EpicentralDistance_4,MainPGA_4,MainPGV_4,MainPGD_4,MainMaxFrequency_4,MainMaxDI_4,MainMaxRI_4,MainMaxMMI_4,MainMaxMMI_PGA_4,MainMaxMMI_PGV_4,HVSR_4,MainHousnerIntensity_4,TrainPGA_4,TrainPGV_4,TrainPGD_4,TrainMaxFrequency_4,TrainMaxDI_4,TrainMaxRI_4,TrainMaxMMI_4,TrainMaxMMI_PGA_4,TrainMaxMMI_PGV_4,TrainHousnerIntensity_4,TrainMaxDI,TrainMaxRI,TrainMaxMMI,MainMaxDI,MainMaxRI,MainMaxMMI,MainMaxMMI_PGA
90874803-3,9087,4803,3.0,cm/s^2,6.0,Turkey,10.92,248.0,142.13,2.591513880793436,0.2855984296582658,0.1260368137025893,1.5307692307692309,0.0,1.916478621806613,3.511609262838963,1.7382419469174737,0.3109802378585375,0.6486111678497509,0.0962016647952272,1.5458001398902792,0.0885119911344395,0.0773222599013951,2.594810379241517,0.0,1.1788186668512606,2.3524293336234097,0.8666715813543092,-1.897010840025137,0.0249158193403249,90874803-4,,,6.0,Turkey,10.92,248.0,142.13,4.654482166523022,0.5742062372086818,0.1609610835860132,0.9928740184776956,0.1823866228855001,2.5823866228855,4.558036121677215,2.8438933264229247,1.7419956670624956,,,2.110005379580349,0.1247849750583559,0.1048798488314748,3.49158796098521,0.0,1.657018906522438,3.103886853106688,1.405647040304562,-0.9275997382773884,,0.0,1.657018906522438,3.103886853106688,0.1823866228855001,2.5823866228855,4.558036121677215,2.8438933264229247
81780210-3,8178,210,3.0,cm/s^2,6.8,Turkey,8.06,1248.0,94.63,18.005505785786113,4.064262157385782,2.4734346341419293,0.2382775933963067,1.5692900947088697,3.969290094708869,6.737455863113937,5.007994284160723,5.315980636618954,1.4520393821611517,1.13904841586268,9.889724586247857,0.8045305796313967,0.2857207326460799,4.191616766467066,0.6794254320183181,3.079425432018318,5.3390971074573566,3.997295422415636,2.263054692914709,0.2260047687861379,8178210-4,,,6.8,Turkey,8.06,1248.0,94.63,24.54775966627896,6.381143527081823,4.881128705315722,0.3459884494980192,2.134930312909359,4.534930312909359,7.626319063143279,5.678718841780453,6.598535429479645,,,9.064680000936123,0.3506814544516479,0.1133585971543603,2.420031068459509,0.3034132681211179,2.703413268121118,4.748220849904614,3.916261361801236,0.7308470826757516,,0.6794254320183181,3.079425432018318,5.3390971074573566,2.134930312909359,4.534930312909359,7.626319063143279,5.678718841780453
81780212-3,8178,212,3.0,cm/s^2,6.8,Turkey,8.06,858.0,53.21,31.765443926469445,5.188620711983669,2.81191190499391,0.7090909090909091,1.988746536027012,4.388746536027012,7.396601699471019,5.965592944387876,5.776325354247385,,1.500827744154113,10.169517497151594,0.8817620283063762,0.4353517331078321,0.998003992015968,0.5877523362105432,2.987752336210544,5.195039385473711,4.044354551161761,2.43582504425209,0.26137456846143,8178212-4,,,6.8,Turkey,8.06,858.0,53.21,41.447974805181474,6.015704998304619,3.806666786111101,0.7334294247411802,2.207752599710373,4.607752599710373,7.740754085259158,6.536498353597724,6.465111993292533,,,10.864561546486856,0.8576532902751907,0.9506185801949772,2.9873512070051427,1.0099306502151528,3.409930650215153,5.858462450338098,4.681115398527941,2.8462551905751425,,1.0099306502151528,3.409930650215153,5.858462450338098,2.207752599710373,4.607752599710373,7.740754085259158,6.536498353597724
81781210-3,8178,1210,3.0,cm/s^2,6.8,Turkey,8.06,,137.18,3.200487644093004,0.5518184090145517,0.5277693702453529,0.3923076923076923,0.0,2.3142078396381613,4.136612319431396,2.0942595455679123,1.5523954417113917,3.234581026583153,0.1800267462325959,2.5376400619636925,0.1328695446304522,0.1036570248048927,2.395209580838324,0.0,1.5526696312952408,2.939909420606807,1.7028062052137791,-1.1313335617731566,0.0464195136185166,81781210-4,,,6.8,Turkey,8.06,,137.18,3.471365765571625,0.7598171070050203,0.7587417328739832,1.268951018121083,0.2176631645902987,2.6176631645902986,4.613470687213327,2.4137924258407293,2.58718647832973,,,1.948050317952813,0.1598882155938535,0.1579639767493243,5.585256918017254,0.0,1.6931465684627844,3.160658893298661,1.2750746519334046,-0.6830948446726413,,0.0,1.6931465684627844,3.160658893298661,0.2176631645902987,2.6176631645902986,4.613470687213327,2.4137924258407293
81781213-3,8178,1213,3.0,cm/s^2,6.8,Turkey,8.06,,156.27,3.405954038839683,0.6716429298499623,0.3682127006528427,0.5448275862068965,0.0132722855789114,2.413272285578912,4.292285020195433,2.199215433720679,1.922780861906125,0.9482694076115464,0.3314819732465321,2.205492696993066,0.337637325048424,0.3588583843555143,0.998003992015968,0.0,2.050483094129074,3.722187719345688,1.4661758437929913,0.626474956852554,0.1272385153836923,81781213-4,,,6.8,Turkey,8.06,,156.27,5.799494152424114,1.4338764636464052,0.9380605985084428,0.5166433324228425,0.6398208312718783,3.039820831271878,5.27686130628438,3.4318516503206267,3.869694759760991,,,2.534227616787065,0.3146008973820637,0.3686611800901559,1.4936756035025711,0.0,2.218720019248986,3.986560030248407,1.928469249068984,1.0436708254535905,,0.0,2.218720019248986,3.986560030248407,0.6398208312718783,3.039820831271878,5.27686130628438,3.4318516503206267
81782105-3,8178,2105,3.0,cm/s^2,6.8,Turkey,8.06,,87.92,8.920773706437396,1.3641322247027845,0.7537823327369109,0.6637732958897115,0.8655030977790787,3.265503097779079,5.631504867938553,3.8233633983477073,3.258277072522371,1.6664694163355818,0.6805004251879048,3.729207169013595,0.3749533449918611,0.1693833222776871,1.7964071856287425,0.0,2.3792821866932865,4.238872007660879,2.3521585265320994,0.8240611883240012,0.1413628613536175,81782105-4,,,6.8,Turkey,8.06,,87.92,10.620963430120106,1.326012089924948,1.2350724629343568,1.1061578969804728,1.1040350185308367,3.5040350185308364,6.0063407434056,4.187607994081876,3.612506516360906,,,5.805108193923108,0.3141960836959954,0.2718152139344415,1.093258597814703,0.2466738246030642,2.6466738246030643,4.659058867233386,3.515684487179392,1.0662726653683066,,0.2466738246030642,2.6466738246030643,4.659058867233386,1.1040350185308367,3.5040350185308364,6.0063407434056,4.187607994081876
81782106-3,8178,2106,3.0,cm/s^2,6.8,Turkey,8.06,,138.48,7.559606800367546,0.890738272758093,0.5062028579826227,0.953846153846154,0.4455469022329742,2.8455469022329742,4.97157370350896,3.5440909200894835,2.4549154914873235,0.9388149813454998,0.4596686991069179,4.470471392732069,0.3375080397142828,0.4267942891208824,1.3972055888223551,0.0,2.1633860554492506,3.899606658563108,2.657972295286745,0.6257530918054637,0.1007480955414507,81782106-4,,,6.8,Turkey,8.06,,138.48,9.402863258368964,1.0798121620425611,0.7202218137472013,0.8954850591295538,0.90824731371996,3.30824731371996,5.698674350131365,4.083082237062602,2.847629021912814,,,2.704583296268742,0.2108670173072727,0.2017988238766909,2.240513405253857,0.0,2.1403483232957607,3.8634045080361954,1.812965064547447,0.2103276319548546,,0.0,2.1633860554492506,3.899606658563108,0.90824731371996,3.30824731371996,5.698674350131365,4.083082237062602
81782301-3,8178,2301,3.0,cm/s^2,6.8,Turkey,8.06,407.0,36.39,66.22727188214172,6.254833627373182,1.6592527060368043,0.9908190164530496,2.3771968881520675,4.7771968881520674,8.00702368138182,7.204907185235819,6.128576408654631,1.2200455188606332,2.9804590508017723,18.845974139692043,1.0372796029284737,0.3666841831823303,15.169660678642714,1.0661440733072935,3.466144073307293,5.94679782948289,5.08494900684914,2.7419879369658227,0.188463434955552,81782301-4,,,6.8,Turkey,8.06,407.0,36.39,130.3038594990488,10.35796687337627,2.675431786199849,1.208844301025443,3.0000019912889573,5.400001991288957,8.985717414882647,8.500184784228273,7.413464463574432,,,22.677882029098203,0.8089501319500112,0.334288902314046,14.25434816076417,1.1960677005095508,3.5960677005095505,6.150963529372151,5.623602387660621,3.113033213134322,,1.1960677005095508,3.5960677005095505,6.150963529372151,3.0000019912889573,5.400001991288957,8.985717414882647,8.500184784228273
81781215-3,8178,1215,3.0,cm/s^2,6.8,Turkey,8.06,,140.18,5.481658891796065,0.8234282036848457,0.7988530605116985,3.3000000000000003,0.4057542208156038,2.805754220815604,4.909042346995949,3.001934235658202,2.306815703664131,,0.3605834313636683,3.619477306087302,0.4050454296731969,0.6066221417518098,3.193612774451098,0.0,2.336054945934867,4.170943486469077,2.3017805123624746,0.9695662150098254,0.1017671896235841,81781215-4,,,6.8,Turkey,8.06,,140.18,12.191306756832637,1.662726913450429,1.045573773876064,1.9772348604642265,1.029971438709857,3.429971438709857,5.889955117972632,4.54506266697858,3.658357670668602,,,4.447368954674495,0.32360915035064,0.2722872814918181,3.79241516966068,0.0967515152225719,2.496751515222572,4.423466666778327,2.92965133656322,0.8879188639556297,,0.0967515152225719,2.496751515222572,4.423466666778327,1.029971438709857,3.429971438709857,5.889955117972632,4.54506266697858
81784401-3,8178,4401,3.0,cm/s^2,6.8,Turkey,8.06,481.0,63.49,37.51452785034624,3.231721135558867,1.9531241122160563,4.163257885646759,1.8005664945528674,4.200566494552867,7.100890205725935,6.24619079929368,4.883943032918761,0.3547615023858498,1.0414333995244982,4.694854875845683,0.2140946529610152,0.3158609965823565,3.193612774451098,0.0,2.260051395396159,4.051509335622535,2.7405805168036887,-0.2321707374049748,0.0280335519658624,81784401-4,,,6.8,Turkey,8.06,481.0,63.49,79.95336247505186,6.768496039841129,2.9470579307771345,1.4769636223317808,2.477556411928364,4.877556411928364,8.164731504458857,7.682811447616118,6.334711465977271,,,12.30337974602178,0.9208427954685304,0.5323639932891054,4.080847964123927,1.0815989633216772,3.481598963321677,5.971084085219778,4.49506691915443,3.057739390228734,,1.0815989633216772,3.481598963321677,5.971084085219778,2.477556411928364,4.877556411928364,8.164731504458857,7.682811447616118
90870313-3,9087,313,3.0,cm/s^2,6.0,Turkey,10.92,,150.67,1.7800016096156324,0.2591953571526466,0.1957343675208889,0.9103448275862068,0.0,1.661339306215905,3.110676052624993,1.1046328143037256,0.1281421259060269,2.4391115966850645,0.0950942509956609,1.4141332355962333,0.2660879698867002,0.5680715340272184,0.7984031936127745,0.0,1.7523977581060797,3.2537679055952675,0.7165044392917326,0.177609541994669,0.0746632102407184,9087313-4,,,6.0,Turkey,10.92,,150.67,2.9628433935775296,0.2879103173708945,0.1521426245281217,2.2204326259477827,0.0,2.0052853542390965,3.65116269951858,2.2086163855114425,0.4706927658147708,,,1.7615504744020345,0.161864074392618,0.0640939473004707,2.594810379241517,0.0,2.007395208100085,3.654478184157276,1.842720227409245,0.0997230259478225,,0.0,2.007395208100085,3.654478184157276,0.0,2.0052853542390965,3.65116269951858,2.2086163855114425
90870914-3,9087,914,3.0,cm/s^2,6.0,Turkey,10.92,267.0,109.13,2.464897037304406,0.2299352887640792,0.3863631533278956,0.9076923076923078,0.0,1.698552233616625,3.1691535099689823,1.653746472458543,-0.0976315715157882,0.935740592667272,0.1141607057238479,2.069341229612265,0.1040844088171381,0.0358630153407143,7.18562874251497,0.0,1.5158096368563836,2.881986572202889,1.358691918085824,-1.5915461495400027,0.0193805553273773,9087914-4,,,6.0,Turkey,10.92,267.0,109.13,3.651102229091358,0.4885039826399821,0.8465559908453224,0.8493645379595238,0.0641066586326089,2.464106658632609,4.372167606422671,2.581837816241328,1.4201291094518609,,,1.4584279154125026,0.0878373687639281,0.0669493460826705,3.9720057369525743,0.0,1.3096636076324066,2.558042811993782,0.9310803005325596,-1.7273719721028096,,0.0,1.5158096368563836,2.881986572202889,0.0641066586326089,2.464106658632609,4.372167606422671,2.581837816241328
81782306-3,8178,2306,3.0,cm/s^2,6.8,Turkey,8.06,663.0,107.88,2.881607078094801,0.5615841276779845,7.098531209163255,0.5384615384615385,0.0,2.314347844928936,4.13683232774547,1.9172214165199897,1.5854603388577782,1.1487348853128354,0.2672901892594145,1.870652282354717,0.2614890209587305,0.6143398286498329,1.1976047904191618,0.0,1.7876192419484789,3.309115951633324,1.1884210767258572,0.144748012176568,0.0679729777207696,81782306-4,,,6.8,Turkey,8.06,663.0,107.88,4.770565800126529,1.1689145398974747,0.7694511805143591,0.6185495536299884,0.588037734973901,2.9880377349739007,5.195487869244701,2.9442604414323164,3.2699948545963182,,,2.0770260150796025,0.2412946892134644,0.2118585705968733,0.9778402166799116,0.0,2.1354080904014263,3.855641284916527,1.7948960219641932,0.8030930064957853,,0.0,2.1354080904014263,3.855641284916527,0.588037734973901,2.9880377349739007,5.195487869244701,2.9442604414323164
81782307-3,8178,2307,3.0,cm/s^2,6.8,Turkey,8.06,330.0,84.35,11.880091912190242,1.9793460921924515,0.807281534743856,0.3999659603438005,1.0746183783354026,3.4746183783354025,5.960114594527061,4.306600105706718,3.9599043429649,1.4612855177610875,0.8382701488694977,4.774473153410108,0.519427625943729,0.7233651510332909,1.1976047904191618,0.1357102572300725,2.5357102572300723,4.484687547075827,2.76894646982414,1.4383786910234322,0.1869218456304133,81782307-4,,,6.8,Turkey,8.06,330.0,84.35,16.379637145581825,3.24938702825901,1.4134665258512011,0.5844644654478011,1.6172272458573298,4.017227245857329,6.812785672061517,5.257856995190447,5.169878281701568,,,3.388479141884761,0.3823338653574377,0.1568546488040852,1.1976047904191618,0.0702857173447293,2.470285717344729,4.381877555827431,2.379393394845032,1.0714985830349848,,0.1357102572300725,2.5357102572300723,4.484687547075827,1.6172272458573298,4.017227245857329,6.812785672061517,5.257856995190447
81782408-3,8178,2408,3.0,cm/s^2,6.8,Turkey,8.06,416.0,138.19,7.17664245206919,1.029446650487822,1.3663978918527602,1.138373971232982,0.6119253464358083,3.011925346435808,5.233025544399127,3.456398367108043,2.7277006867966294,0.6700440987199011,0.5220944245760977,1.938616964175245,0.3653185142270828,0.8933914642929315,1.596806387225549,0.0,2.0985018734764687,3.797645801177308,1.2486189621041088,0.7749951028183251,0.0734082807079727,81782408-4,,,6.8,Turkey,8.06,416.0,138.19,14.08822153161474,2.500752343602344,2.8312599312207136,0.762760761560998,1.3259322593205631,3.725932259320563,6.355036407503742,4.853138447936849,4.643442128408709,,,2.093904650402875,0.2716405976454687,0.4873108940817321,2.186517195629406,0.0,2.0010998988161206,3.6445855552824753,1.3963950884610696,0.4456529538627727,,0.0,2.0985018734764687,3.797645801177308,1.3259322593205631,3.725932259320563,6.355036407503742,4.853138447936849
81782409-3,8178,2409,3.0,cm/s^2,6.8,Turkey,8.06,875.0,113.82,7.027087951701611,0.9476678847250012,0.4016097983091761,0.3999692331359126,0.6292272695596589,3.0292272695596587,5.260214280736607,3.4208756118171144,2.5716877481984626,8.244955423823006,0.3485219827136503,1.850373215214556,0.1424390550266995,0.1481478430290513,4.191616766467066,0.0,1.6867757800876322,3.150647654423422,1.1700352503306948,-1.000249776296044,0.0349224547181895,81782409-4,,,6.8,Turkey,8.06,875.0,113.82,16.736947158981394,2.194397899063012,1.3381942337460582,3.297728498106271,1.637890026144448,4.037890026144448,6.845255755369846,5.21947471316709,4.721682465558024,,,2.829169244007851,0.1902193267375449,0.1262165011397915,5.458999733004927,0.0,1.9177934092267424,3.513675357356309,1.965018800338941,-0.3203463440008538,,0.0,1.9177934092267424,3.513675357356309,1.637890026144448,4.037890026144448,6.845255755369846,5.21947471316709
81782410-3,8178,2410,3.0,cm/s^2,6.8,Turkey,8.06,541.0,160.32,3.497729277281327,0.9046229050749276,0.4935417103296238,0.5724137931034483,0.1512832546800683,2.5512832546800683,4.509159400211536,2.244065570660942,2.4840692967504885,0.7673100399079834,0.3418927136694032,2.1388593299304346,0.2610676020305679,0.0841145391222203,0.7984031936127745,0.0,1.9178906282560264,3.5138281301166123,1.4144277522391753,0.1417079335758582,0.1325308427326656,81782410-4,,,6.8,Turkey,8.06,541.0,160.32,6.629055231155532,1.6508854987292063,1.254481431207176,0.439218850430087,0.7908999420907832,3.190899942090783,5.5142713375712304,3.4504809606540183,3.937462627767651,,,1.518170444862003,0.2295358277184234,0.2108090026004584,0.7984031936127745,0.0,1.754622387858651,3.257263752349309,1.0095147158470317,0.0220824326021746,,0.0,1.9178906282560264,3.5138281301166123,0.7908999420907832,3.190899942090783,5.5142713375712304,3.4504809606540183
81782710-3,8178,2710,3.0,cm/s^2,6.8,Turkey,8.06,448.0,158.74,13.301054133211752,2.3301177288552544,0.9221141198322796,0.7654644507275361,1.3994168926922357,3.799416892692236,6.470512259944941,4.497173460824096,4.267419930823873,3.942231581032136,0.8120735934538474,10.394425820986664,0.5680581000460766,0.169423856086011,4.990019960079841,0.5336001702125877,2.933600170212588,5.10994312461978,4.08125315863049,1.6070645649739148,0.1482526176787191,81782710-4,,,6.8,Turkey,8.06,448.0,158.74,39.92240397136543,3.505468944719598,2.586733711942041,3.0176381318155103,1.909078937329432,4.309078937329431,7.271409758660535,6.4191933229637055,5.248638456004215,,,12.087110543165805,0.4395240594963543,0.157962848746626,3.2919006990959367,0.5103069534479596,2.9103069534479595,5.073339498275365,4.46896283249627,1.3832333538816317,,0.5336001702125877,2.933600170212588,5.10994312461978,1.909078937329432,4.309078937329431,7.271409758660535,6.4191933229637055
81782711-3,8178,2711,3.0,cm/s^2,6.8,Turkey,8.06,720.0,175.6,9.485602348638343,1.6384353521343835,1.4368696787910455,0.5378939383490794,0.9844643787068608,3.384464378706861,5.8184440236822095,3.926920127491055,3.603623205689749,0.9844284010488444,0.5804967581933552,3.900899994336377,0.4937283414694388,0.394469557084718,0.998003992015968,0.0269492815206397,2.42694928152064,4.3137774423895765,2.4280841478188777,1.3427381705261143,0.1531798203132304,81782711-4,,,6.8,Turkey,8.06,720.0,175.6,11.87179279696353,2.0677850412783028,2.0839563092005555,0.52951806966285,1.1275660939088006,3.5275660939088005,6.0433181475709725,4.443072146266779,4.057447257241253,,,3.529852084238266,0.2796094301003636,0.1256493226325488,0.998003992015968,0.0,2.2125724402876177,3.976899549023399,2.7970968769072297,0.494389726952043,,0.0269492815206397,2.42694928152064,4.3137774423895765,1.1275660939088006,3.5275660939088005,6.0433181475709725,4.443072146266779
81784407-3,8178,4407,3.0,cm/s^2,6.8,Turkey,8.06,735.0,83.78,20.135215245599337,2.5171350238870187,4.9676726180563,0.978640115734831,1.3195105014496915,3.719510501449691,6.344945073706658,5.196566178234687,4.412934264472387,0.899905477077931,1.0830886288462076,9.230518606567903,0.7942403740911412,0.2894188941852294,0.998003992015968,0.705940090660563,3.105940090660563,5.380762999609456,3.880938180442647,2.238791506562804,0.1779250292748287,81784407-4,,,6.8,Turkey,8.06,735.0,83.78,27.019297674201443,3.658693045463669,5.723059230668375,0.8806836002379547,1.8242983504894708,4.22429835048947,7.138183122197739,5.938588445548231,5.444421024072415,,,8.073928799855334,0.8513770839678623,0.5033695191060518,1.3972055888223551,0.7710971912965658,3.1710971912965658,5.4831527291803175,3.7235334352946734,2.6874806996550453,,0.7710971912965658,3.1710971912965658,5.4831527291803175,1.8242983504894708,4.22429835048947,7.138183122197739,5.938588445548231
